[
  {
    "name": "Gorepani Comunal Healt Social Reform Group",
    "amenity": "hospital",
    "longitude": 83.6993752,
    "latitude": 28.3999274
  },
  {
    "name": "Health post",
    "amenity": "hospital",
    "longitude": 83.8098997,
    "latitude": 28.3755067
  },
  {
    "name": "MHP Hawangdi HP",
    "amenity": "hospital",
    "longitude": 83.132,
    "latitude": 28.23264
  },
  {
    "name": "MHP Sirseni SHP",
    "amenity": "hospital",
    "longitude": 83.09407,
    "latitude": 28.18656
  },
  {
    "name": "Madhane Community Health Center",
    "amenity": "hospital",
    "longitude": 83.0761906,
    "latitude": 28.2099002
  },
  {
    "name": "Samudayek Swasthiye Ikai",
    "amenity": "hospital",
    "longitude": 83.770823,
    "latitude": 28.2920259
  },
  {
    "name": "Sub Healthpost",
    "amenity": "hospital",
    "longitude": 83.7496382,
    "latitude": 28.0475418
  },
  {
    "name": "MHP Dubichaur SHP",
    "amenity": "hospital",
    "longitude": 83.272374,
    "latitude": 28.0477388
  },
  {
    "name": "Gwangju Clinic",
    "amenity": "hospital",
    "longitude": 83.7426082,
    "latitude": 28.2738722
  },
  {
    "name": "PMTCT Center",
    "amenity": "hospital",
    "longitude": 83.8739627,
    "latitude": 28.1050724
  },
  {
    "name": "Lespar Health Post",
    "amenity": "hospital",
    "longitude": 83.6725891,
    "latitude": 28.318922
  },
  {
    "name": "Muktinath Hospital",
    "amenity": "hospital",
    "longitude": 83.5984623,
    "latitude": 28.2677391
  },
  {
    "name": "Dhaulagiri Hospital",
    "amenity": "hospital",
    "longitude": 83.6009319,
    "latitude": 28.2687121
  },
  {
    "name": "Sahara Hospital",
    "amenity": "hospital",
    "longitude": 83.679034,
    "latitude": 28.2204975
  },
  {
    "name": "Tinje Health Post",
    "amenity": "hospital",
    "longitude": 83.2597374,
    "latitude": 29.3037224
  },
  {
    "name": "Kuhun Health-post",
    "amenity": "hospital",
    "longitude": 83.4853005,
    "latitude": 28.3963622
  },
  {
    "name": "Lagarche Health Post",
    "amenity": "hospital",
    "longitude": 85.6161532,
    "latitude": 27.8684531
  },
  {
    "name": "Model Hospital Nawalpur 1 Lalbanhi MP",
    "amenity": "hospital",
    "longitude": 85.5879898,
    "latitude": 27.0673409
  },
  {
    "name": "Gadpati Hospital P.V.T 1 Lalbandhi MP",
    "amenity": "hospital",
    "longitude": 85.5887375,
    "latitude": 27.0670795
  },
  {
    "name": "National Aayurveda Research Center",
    "amenity": "hospital",
    "longitude": 85.8820953,
    "latitude": 26.97365
  },
  {
    "name": "Bardibas Hospital",
    "amenity": "hospital",
    "longitude": 85.8795624,
    "latitude": 26.9739208
  },
  {
    "name": "Bardibas Health Clinic",
    "amenity": "hospital",
    "longitude": 85.8950119,
    "latitude": 26.9900837
  },
  {
    "name": "Balmaitri Polyclinic",
    "amenity": "hospital",
    "longitude": 85.8961868,
    "latitude": 26.9924927
  },
  {
    "name": "Red Cross",
    "amenity": "hospital",
    "longitude": 85.5134905,
    "latitude": 27.5840061
  },
  {
    "name": "Sadbhav Community Hospital",
    "amenity": "hospital",
    "longitude": 85.5113525,
    "latitude": 27.6538611
  },
  {
    "name": "Krishna Prasad Hospital",
    "amenity": "hospital",
    "longitude": 85.5237477,
    "latitude": 27.6296267
  },
  {
    "name": "Krishna Prasad Hospital",
    "amenity": "hospital",
    "longitude": 85.5246921,
    "latitude": 27.6294156
  },
  {
    "name": "Spinal Injury Rehabilitation Center",
    "amenity": "hospital",
    "longitude": 85.492346,
    "latitude": 27.636392
  },
  {
    "name": "Chautara Hospital Sindhupalchok",
    "amenity": "hospital",
    "longitude": 85.7112068,
    "latitude": 27.7804792
  },
  {
    "name": "Bhomi Hospital",
    "amenity": "hospital",
    "longitude": 85.5090439,
    "latitude": 27.6325128
  },
  {
    "name": "banepa dentel",
    "amenity": "hospital",
    "longitude": 85.5215853,
    "latitude": 27.6306702
  },
  {
    "name": "Merryland Heath Care",
    "amenity": "hospital",
    "longitude": 85.5178761,
    "latitude": 27.6311524
  },
  {
    "name": "Scheer Memorial Hospital",
    "amenity": "hospital",
    "longitude": 85.5273593,
    "latitude": 27.63342
  },
  {
    "name": "Dhulikhel Hospital Outreach Centre, Manekharka",
    "amenity": "hospital",
    "longitude": 85.6519501,
    "latitude": 27.9375931
  },
  {
    "name": "bhumlu rural municipal hospital",
    "amenity": "hospital",
    "longitude": 85.7359073,
    "latitude": 27.6323051
  },
  {
    "name": "Takshi Hospital",
    "amenity": "hospital",
    "longitude": 83.1766829,
    "latitude": 29.1458177
  },
  {
    "name": "मेट्रो अस्पताल",
    "amenity": "hospital",
    "longitude": 85.3371465,
    "latitude": 27.7398634
  },
  {
    "name": "मैत्री सामुदायिक अस्पताल",
    "amenity": "hospital",
    "longitude": 85.3451431,
    "latitude": 27.7268923
  },
  {
    "name": "ओम हस्पिटल एण्ड रिसर्च सेन्टर प्रा. लि",
    "amenity": "hospital",
    "longitude": 85.3448029,
    "latitude": 27.7214203
  },
  {
    "name": "एड्भान्स ओरल डेन्टल अस्पताल",
    "amenity": "hospital",
    "longitude": 85.347324,
    "latitude": 27.6778355
  },
  {
    "name": "स्वाकोन इन्टरनेशनल अस्पताल प्रा. लि.",
    "amenity": "hospital",
    "longitude": 85.3364085,
    "latitude": 27.7042102
  },
  {
    "name": "सुरुची होम केयर",
    "amenity": "hospital",
    "longitude": 85.3377249,
    "latitude": 27.6937636
  },
  {
    "name": "करुणा अस्पताल",
    "amenity": "hospital",
    "longitude": 85.3624523,
    "latitude": 27.7512928
  },
  {
    "name": "Sahari Swasthya Kendra",
    "amenity": "hospital",
    "longitude": 85.2392771,
    "latitude": 27.6860977
  },
  {
    "name": "समाज डेन्टल",
    "amenity": "hospital",
    "longitude": 85.3369386,
    "latitude": 27.6910912
  },
  {
    "name": "एनआरएन स्वास्थ्य सेवा प्रा. लि.",
    "amenity": "hospital",
    "longitude": 85.3826788,
    "latitude": 27.6898674
  },
  {
    "name": "बंगलाचुली अस्पताल",
    "amenity": "hospital",
    "longitude": 82.6274004,
    "latitude": 28.0073265
  },
  {
    "name": "आधारभुत स्वास्थ्य केन्द्र शिनपा -१२ रजिया",
    "amenity": "hospital",
    "longitude": 83.0686798,
    "latitude": 27.8171616
  },
  {
    "name": "भेडामारा उप स्वास्थ चौकी",
    "amenity": "hospital",
    "longitude": 83.0703354,
    "latitude": 27.8376789
  },
  {
    "name": "ब्रोदर हेल्थ केयर एण्ड डाइग्नोस्टिक सेन्टर",
    "amenity": "hospital",
    "longitude": 85.3855616,
    "latitude": 27.6697309
  },
  {
    "name": "अव्युदय स्वास्थ्य सेवा केन्द्र",
    "amenity": "hospital",
    "longitude": 85.3698829,
    "latitude": 27.661574
  },
  {
    "name": "वेलनेस हस्पिटल प्रा. लि.",
    "amenity": "hospital",
    "longitude": 85.3378586,
    "latitude": 27.7424351
  },
  {
    "name": "इशान बाल तथा महिला अस्पताल",
    "amenity": "hospital",
    "longitude": 85.3369164,
    "latitude": 27.7481329
  },
  {
    "name": "सैनिक अस्पताल",
    "amenity": "hospital",
    "longitude": 85.2913209,
    "latitude": 27.7114391
  },
  {
    "name": "पेडिअट्रिक्स",
    "amenity": "hospital",
    "longitude": 85.3306265,
    "latitude": 27.7365875
  },
  {
    "name": "महेन्द्र नारायण निधि मेमोरियल अस्पताल",
    "amenity": "hospital",
    "longitude": 85.3253255,
    "latitude": 27.7375473
  },
  {
    "name": "नेपाल अाखा अस्पताल",
    "amenity": "hospital",
    "longitude": 85.3301942,
    "latitude": 27.7687021
  },
  {
    "name": "हिमालय उपचार केन्द्र",
    "amenity": "hospital",
    "longitude": 85.3706839,
    "latitude": 27.7291945
  },
  {
    "name": "अाधारभूत स्वास्थ्य सेवा केन्द्र",
    "amenity": "hospital",
    "longitude": 83.5889511,
    "latitude": 27.6196651
  },
  {
    "name": "Chitwan Valley Model Hospital",
    "amenity": "hospital",
    "longitude": 84.4318936,
    "latitude": 27.679569
  },
  {
    "name": "Asha Hospital pvt.ltd",
    "amenity": "hospital",
    "longitude": 84.4332766,
    "latitude": 27.6803508
  },
  {
    "name": "Chitwan Medical College Teaching Hospital",
    "amenity": "hospital",
    "longitude": 84.4307286,
    "latitude": 27.6853544
  },
  {
    "name": "Patana Health Post",
    "amenity": "hospital",
    "longitude": 83.2019348,
    "latitude": 27.6127453
  },
  {
    "name": "खोरमोर सामुदायिक शहरी स्वास्थ्य सेवा केन्द्र शितगङ्गा नगरपालिका-१४ खोरमोर अर्घाखाँची",
    "amenity": "hospital",
    "longitude": 83.2374954,
    "latitude": 27.7518234
  },
  {
    "name": "करेचुली",
    "amenity": "hospital",
    "longitude": 83.2320251,
    "latitude": 27.79953
  },
  {
    "name": "Uttamnagar Basic Health center",
    "amenity": "hospital",
    "longitude": 83.18853,
    "latitude": 27.7024078
  },
  {
    "name": "Pipara Hospital",
    "amenity": "hospital",
    "longitude": 83.2021203,
    "latitude": 27.6894727
  },
  {
    "name": "कीर्तिपुर सामुदायिक स्वास्थ्य केन्द्र",
    "amenity": "hospital",
    "longitude": 85.2812827,
    "latitude": 27.6734889
  },
  {
    "name": "कीर्तिपुर आँखा अस्पताल र अनुसन्धान केन्द्र",
    "amenity": "hospital",
    "longitude": 85.2841802,
    "latitude": 27.6767736
  },
  {
    "name": "Sankhar Health Post",
    "amenity": "hospital",
    "longitude": 83.933676,
    "latitude": 27.8998985
  },
  {
    "name": "रक्सिराङ आधारभूत अस्पताल, रक्सिराङ ५, थाडेचुरी",
    "amenity": "hospital",
    "longitude": 84.8388158,
    "latitude": 27.5523076
  },
  {
    "name": "Beautiful Mind, Institute of Psychiatry",
    "amenity": "hospital",
    "longitude": 84.583347,
    "latitude": 27.5665263
  },
  {
    "name": "Patan Healthcare",
    "amenity": "hospital",
    "longitude": 85.3243261,
    "latitude": 27.5992721
  },
  {
    "name": "अाधारभूत स्वास्थ्य सेवा केन्द्र",
    "amenity": "hospital",
    "longitude": 83.629982,
    "latitude": 27.6129475
  },
  {
    "name": "प्रसुती गृह",
    "amenity": "hospital",
    "longitude": 83.6410522,
    "latitude": 27.610796
  },
  {
    "name": "अाधारभूत स्वास्थ्य सेवा केन्द्र",
    "amenity": "hospital",
    "longitude": 83.6534882,
    "latitude": 27.6222477
  },
  {
    "name": "मुसिवान स्वास्थ ईकाइ शितगङ्गा नगरपालिका-१३ मुसिवान",
    "amenity": "hospital",
    "longitude": 83.1322327,
    "latitude": 27.7839413
  },
  {
    "name": "सिमल पानी स्वास्थ्य चौकी",
    "amenity": "hospital",
    "longitude": 83.1593323,
    "latitude": 27.807497
  },
  {
    "name": "Bhalward Health Post",
    "amenity": "hospital",
    "longitude": 83.1176071,
    "latitude": 27.7230301
  },
  {
    "name": "Motipurdhada Basic Health Center",
    "amenity": "hospital",
    "longitude": 83.1193314,
    "latitude": 27.6869545
  },
  {
    "name": "Motipur Health Post",
    "amenity": "hospital",
    "longitude": 83.138649,
    "latitude": 27.6855335
  },
  {
    "name": "धारपाहिला स्वास्थ चौकि",
    "amenity": "hospital",
    "longitude": 83.0397568,
    "latitude": 27.8592701
  },
  {
    "name": "जुकेना स्वास्थ चौकी",
    "amenity": "hospital",
    "longitude": 83.0526123,
    "latitude": 27.8849163
  },
  {
    "name": "सुवर्णखाल स्वास्थय चौकी",
    "amenity": "hospital",
    "longitude": 83.1502533,
    "latitude": 27.8588371
  },
  {
    "name": "पद्मी सामुदायिक स्वास्थ्य केन्द्र",
    "amenity": "hospital",
    "longitude": 83.0835876,
    "latitude": 27.8758602
  },
  {
    "name": "खाचिकेाट स्वास्थ्य चैाकि",
    "amenity": "hospital",
    "longitude": 83.1289297,
    "latitude": 27.9221391
  },
  {
    "name": "खिदिम स्वास्थ चौकी",
    "amenity": "hospital",
    "longitude": 83.29089,
    "latitude": 27.9145
  },
  {
    "name": "पणेना sth",
    "amenity": "hospital",
    "longitude": 83.30273,
    "latitude": 27.87003
  },
  {
    "name": "Patauti Health post",
    "amenity": "hospital",
    "longitude": 83.24547,
    "latitude": 27.87941
  },
  {
    "name": "Patauti Health post",
    "amenity": "hospital",
    "longitude": 83.25038,
    "latitude": 27.85862
  },
  {
    "name": "धातिबङ स्वास्थ्य चौकी पाणिनी 6धातिबङ",
    "amenity": "hospital",
    "longitude": 83.20955,
    "latitude": 27.8871
  },
  {
    "name": "अड्गुरि स्वास्थ्य चौकी पाणिनि 7 अर्घाखाँची",
    "amenity": "hospital",
    "longitude": 83.18165,
    "latitude": 27.93699
  },
  {
    "name": "Sundarijal Swastha Chauki",
    "amenity": "hospital",
    "longitude": 85.4290501,
    "latitude": 27.7728016
  },
  {
    "name": "ओरिसन मेडिकल हल",
    "amenity": "hospital",
    "longitude": 85.3789969,
    "latitude": 27.7071767
  },
  {
    "name": "Gajahada health post",
    "amenity": "hospital",
    "longitude": 83.1711578,
    "latitude": 27.6630669
  },
  {
    "name": "Laxmanghat aadharbhut health post",
    "amenity": "hospital",
    "longitude": 83.1207352,
    "latitude": 27.6636353
  },
  {
    "name": "avaya upchar kendra",
    "amenity": "hospital",
    "longitude": 84.4225384,
    "latitude": 27.6987231
  },
  {
    "name": "Jahada health post",
    "amenity": "hospital",
    "longitude": 83.7644272,
    "latitude": 27.4957867
  },
  {
    "name": "magalapur samudaik swasthe cauki",
    "amenity": "hospital",
    "longitude": 83.7246552,
    "latitude": 27.4751625
  },
  {
    "name": "Bhujhawa health post",
    "amenity": "hospital",
    "longitude": 83.7416382,
    "latitude": 27.4266739
  },
  {
    "name": "सामुदायिक स्वास्थ्य ईकाइ",
    "amenity": "hospital",
    "longitude": 83.6733704,
    "latitude": 27.4989605
  },
  {
    "name": "jagarnathpur prathamik kendra",
    "amenity": "hospital",
    "longitude": 83.7856522,
    "latitude": 27.4686241
  },
  {
    "name": "Palhi Primary Health care center",
    "amenity": "hospital",
    "longitude": 83.6661606,
    "latitude": 27.4848213
  },
  {
    "name": "Kushma Health Post-Kushma",
    "amenity": "hospital",
    "longitude": 83.686264,
    "latitude": 27.4701519
  },
  {
    "name": "Harpur Health Post-Palhinandan-2Harpur",
    "amenity": "hospital",
    "longitude": 83.6910095,
    "latitude": 27.4437141
  },
  {
    "name": "Janata Clinic Palhinandan-2",
    "amenity": "hospital",
    "longitude": 83.6936703,
    "latitude": 27.4418044
  },
  {
    "name": "Nepal Pariwar Niyojan Sangh Palhinandan-1Rampurawa",
    "amenity": "hospital",
    "longitude": 83.7009201,
    "latitude": 27.4371185
  },
  {
    "name": "Rampurawa Health Post Palhinandan-1Rampurawa",
    "amenity": "hospital",
    "longitude": 83.7012863,
    "latitude": 27.4350853
  },
  {
    "name": "Sanai health post",
    "amenity": "hospital",
    "longitude": 83.6358032,
    "latitude": 27.488245
  },
  {
    "name": "Germi health post",
    "amenity": "hospital",
    "longitude": 83.6534271,
    "latitude": 27.4587078
  },
  {
    "name": "Kaule Dispensary",
    "amenity": "hospital",
    "longitude": 84.6216375,
    "latitude": 27.7921343
  },
  {
    "name": "जिल्ला आयुर्वेद स्वास्थ्य केन्द्र",
    "amenity": "hospital",
    "longitude": 85.3491139,
    "latitude": 27.6974971
  },
  {
    "name": "दिर्घजीवन स्वास्थ्य सेवा तथा अनुसन्धान केन्द्र प्रा. लि",
    "amenity": "hospital",
    "longitude": 85.3146971,
    "latitude": 27.6934255
  },
  {
    "name": "टेकु अस्पताल",
    "amenity": "hospital",
    "longitude": 85.3064884,
    "latitude": 27.6946731
  },
  {
    "name": "मेड स्टार हेल्थ केयर",
    "amenity": "hospital",
    "longitude": 85.3779141,
    "latitude": 27.6963905
  },
  {
    "name": "कुन्फेन तिब्बती चिकित्सा",
    "amenity": "hospital",
    "longitude": 85.3092366,
    "latitude": 27.713065
  },
  {
    "name": "ग्रान्डी सिटी अस्पताल",
    "amenity": "hospital",
    "longitude": 85.3147438,
    "latitude": 27.711016
  },
  {
    "name": "DI Skin Hospital And Referral Center(DISHARC)",
    "amenity": "hospital",
    "longitude": 85.345195,
    "latitude": 27.7502369
  },
  {
    "name": "टेस्ला डायग्नोस्टिक सेन्टर र फार्मेसी",
    "amenity": "hospital",
    "longitude": 85.3306804,
    "latitude": 27.7268113
  },
  {
    "name": "धन्वन्तरी आयुर्वेद अस्पताल तथा अनुसन्धान केन्द्र",
    "amenity": "hospital",
    "longitude": 85.3443527,
    "latitude": 27.7324263
  },
  {
    "name": "काठमाडौं जीवन ज्योति अस्पताल",
    "amenity": "hospital",
    "longitude": 85.3489721,
    "latitude": 27.7181627
  },
  {
    "name": "आयुर्वेदिक",
    "amenity": "hospital",
    "longitude": 85.2752829,
    "latitude": 27.6684119
  },
  {
    "name": "Pics Nepal",
    "amenity": "hospital",
    "longitude": 85.3473448,
    "latitude": 27.6830415
  },
  {
    "name": "काठमाडौँ न्यूरो एण्ड जनरल अस्पताल",
    "amenity": "hospital",
    "longitude": 85.3180007,
    "latitude": 27.705956
  },
  {
    "name": "काठमाडौं ईएनटी हस्पिटल प्रा. लि",
    "amenity": "hospital",
    "longitude": 85.3184414,
    "latitude": 27.7033226
  },
  {
    "name": "ग्लोबल अस्पताल",
    "amenity": "hospital",
    "longitude": 85.3330204,
    "latitude": 27.667072
  },
  {
    "name": "Kalika Community Hospital",
    "amenity": "hospital",
    "longitude": 85.2034632,
    "latitude": 27.9938874
  },
  {
    "name": "गणेश मान सिंह मेमोरियल अस्पताल तथा अनुसन्धान केन्द्र",
    "amenity": "hospital",
    "longitude": 85.3188818,
    "latitude": 27.6614719
  },
  {
    "name": "रिदम न्यूरोसाइकियाट्री अस्पताल र अनुसन्धान केन्द्र",
    "amenity": "hospital",
    "longitude": 85.3098021,
    "latitude": 27.6694472
  },
  {
    "name": "सार्वजनिक अस्पताल",
    "amenity": "hospital",
    "longitude": 85.3054073,
    "latitude": 27.6656582
  },
  {
    "name": "समता अस्पताल",
    "amenity": "hospital",
    "longitude": 85.3572093,
    "latitude": 27.7164886
  },
  {
    "name": "ह्वावे अन्तर्राष्ट्रिय अस्पताल",
    "amenity": "hospital",
    "longitude": 85.3452849,
    "latitude": 27.7130487
  },
  {
    "name": "भिजन पोलिक्लिनिक",
    "amenity": "hospital",
    "longitude": 85.3448619,
    "latitude": 27.6754331
  },
  {
    "name": "hakuee swasth chauki",
    "amenity": "hospital",
    "longitude": 83.6172104,
    "latitude": 27.5201092
  },
  {
    "name": "adharbhut swasthya kendra",
    "amenity": "hospital",
    "longitude": 83.6217575,
    "latitude": 27.5252037
  },
  {
    "name": "Makar health post",
    "amenity": "hospital",
    "longitude": 83.8104019,
    "latitude": 27.5270252
  },
  {
    "name": "Manari Health post",
    "amenity": "hospital",
    "longitude": 83.708135,
    "latitude": 27.5296643
  },
  {
    "name": "आरोग्य आश्रम",
    "amenity": "hospital",
    "longitude": 85.3304899,
    "latitude": 27.7177828
  },
  {
    "name": "Chitlang Sub Hospital",
    "amenity": "hospital",
    "longitude": 85.16843,
    "latitude": 27.6489421
  },
  {
    "name": "sowasth chauki hakui",
    "amenity": "hospital",
    "longitude": 83.6162643,
    "latitude": 27.5076599
  },
  {
    "name": "Siddhartha Nagar City Hospital Pvt Ltd",
    "amenity": "hospital",
    "longitude": 83.4520676,
    "latitude": 27.5181052
  },
  {
    "name": "Manjhariya 10 Bidhyalay nagar",
    "amenity": "hospital",
    "longitude": 83.6492996,
    "latitude": 27.5150032
  },
  {
    "name": "Sahari Swasthya Kendra , Chamkipur",
    "amenity": "hospital",
    "longitude": 83.6861572,
    "latitude": 27.513752
  },
  {
    "name": "Aadharbhut swasthya Sewa Kendra",
    "amenity": "hospital",
    "longitude": 83.6683502,
    "latitude": 27.5161228
  },
  {
    "name": "Siddhartha City Hospital Pvt. Ltd.",
    "amenity": "hospital",
    "longitude": 83.4488273,
    "latitude": 27.4904353
  },
  {
    "name": "टोखा चन्देश्वरी अस्पताल",
    "amenity": "hospital",
    "longitude": 85.3295466,
    "latitude": 27.7701596
  },
  {
    "name": "Shiva Darshan Hospital",
    "amenity": "hospital",
    "longitude": 85.1330069,
    "latitude": 27.7351447
  },
  {
    "name": "अलिफ स्वास्थ सेवा केन्द्र",
    "amenity": "hospital",
    "longitude": 85.317815,
    "latitude": 27.7616933
  },
  {
    "name": "All Nepal Hospital",
    "amenity": "hospital",
    "longitude": 85.3175665,
    "latitude": 27.7359758
  },
  {
    "name": "Bharatpur Family Planning Hospital",
    "amenity": "hospital",
    "longitude": 84.4387436,
    "latitude": 27.6709797
  },
  {
    "name": "District Veterinary Hospital",
    "amenity": "hospital",
    "longitude": 84.4384875,
    "latitude": 27.6757452
  },
  {
    "name": "kantipur dental",
    "amenity": "hospital",
    "longitude": 84.422115,
    "latitude": 27.6962801
  },
  {
    "name": "Anamol Arayog Kandra",
    "amenity": "hospital",
    "longitude": 84.4296794,
    "latitude": 27.687011
  },
  {
    "name": "Sauraha Eye Care Center",
    "amenity": "hospital",
    "longitude": 84.5023171,
    "latitude": 27.5824078
  },
  {
    "name": "District Ayurved Health Centre",
    "amenity": "hospital",
    "longitude": 84.5084429,
    "latitude": 27.6234312
  },
  {
    "name": "Kathar HealthPost",
    "amenity": "hospital",
    "longitude": 84.6023438,
    "latitude": 27.5881643
  },
  {
    "name": "Padampur Health Post",
    "amenity": "hospital",
    "longitude": 84.5067582,
    "latitude": 27.6839787
  },
  {
    "name": "oasis medical college",
    "amenity": "hospital",
    "longitude": 84.4324255,
    "latitude": 27.6884248
  },
  {
    "name": "Mary Stopes",
    "amenity": "hospital",
    "longitude": 84.4235261,
    "latitude": 27.6991445
  },
  {
    "name": "Nepal Red Cross Society",
    "amenity": "hospital",
    "longitude": 84.423163,
    "latitude": 27.6991788
  },
  {
    "name": "Maulakalika Hospital",
    "amenity": "hospital",
    "longitude": 84.4304008,
    "latitude": 27.6803636
  },
  {
    "name": "Puspanjali Hospital",
    "amenity": "hospital",
    "longitude": 84.4302743,
    "latitude": 27.682554
  },
  {
    "name": "सोमलता पतंजलि आयुर्वेद केन्द्र प्रा.लि",
    "amenity": "hospital",
    "longitude": 85.3229192,
    "latitude": 27.7056935
  },
  {
    "name": "तारिनी स्वास्थ्य केन्द्र",
    "amenity": "hospital",
    "longitude": 85.3084222,
    "latitude": 27.7049515
  },
  {
    "name": "काठमाडौं मेडिकल कलेज",
    "amenity": "hospital",
    "longitude": 85.3275905,
    "latitude": 27.7015906
  },
  {
    "name": "नेपाल प्रहरी अस्पताल",
    "amenity": "hospital",
    "longitude": 85.3235715,
    "latitude": 27.7310242
  },
  {
    "name": "वत्सल्या प्राकृतिक आईवीएफ, फर्टिलिटी क्लिनिक",
    "amenity": "hospital",
    "longitude": 85.3252763,
    "latitude": 27.7155843
  },
  {
    "name": "ब्लु क्रस अस्पताल",
    "amenity": "hospital",
    "longitude": 85.3152583,
    "latitude": 27.6937147
  },
  {
    "name": "आँखा अस्पताल",
    "amenity": "hospital",
    "longitude": 84.807784,
    "latitude": 27.541439
  },
  {
    "name": "नेपाल पशु अस्पताल",
    "amenity": "hospital",
    "longitude": 85.3112844,
    "latitude": 27.6948215
  },
  {
    "name": "अन्नपूर्ण न्यूरोलोजिकल इन्स्टिच्युट तथा एलाइड साइन्स",
    "amenity": "hospital",
    "longitude": 85.3215837,
    "latitude": 27.6948191
  },
  {
    "name": "निदान अस्पताल प्रा.लि.",
    "amenity": "hospital",
    "longitude": 85.3217511,
    "latitude": 27.6773339
  },
  {
    "name": "Rajmarga Samudayak Hospital",
    "amenity": "hospital",
    "longitude": 84.8334747,
    "latitude": 27.8111146
  },
  {
    "name": "नेपाल मनमिन अस्पताल",
    "amenity": "hospital",
    "longitude": 85.3336444,
    "latitude": 27.6630188
  },
  {
    "name": "Buddha Minimal Access International (MAI) Center",
    "amenity": "hospital",
    "longitude": 85.304213,
    "latitude": 27.6980033
  },
  {
    "name": "Roma Hospital Pvt.Ltd.",
    "amenity": "hospital",
    "longitude": 85.3177414,
    "latitude": 26.953577
  },
  {
    "name": "Manikhel Hospital",
    "amenity": "hospital",
    "longitude": 85.3904653,
    "latitude": 27.5139349
  },
  {
    "name": "Shivanagar Primary Health Care Center",
    "amenity": "hospital",
    "longitude": 84.3566566,
    "latitude": 27.6204017
  },
  {
    "name": "Rupauliya health post",
    "amenity": "hospital",
    "longitude": 83.8518295,
    "latitude": 27.477787
  },
  {
    "name": "Asharbhut swasthe kendra",
    "amenity": "hospital",
    "longitude": 83.8578186,
    "latitude": 27.4460354
  },
  {
    "name": "somani health post",
    "amenity": "hospital",
    "longitude": 83.7778168,
    "latitude": 27.4447517
  },
  {
    "name": "Adharbhut health post",
    "amenity": "hospital",
    "longitude": 83.7715454,
    "latitude": 27.475729
  },
  {
    "name": "Sahid smirti samudaaik hospital center",
    "amenity": "hospital",
    "longitude": 83.784729,
    "latitude": 27.5016899
  },
  {
    "name": "narsahi helth post",
    "amenity": "hospital",
    "longitude": 83.8490116,
    "latitude": 27.4223113
  },
  {
    "name": "Badara dubauliya health post",
    "amenity": "hospital",
    "longitude": 83.7305527,
    "latitude": 27.4668541
  },
  {
    "name": "sarawal swasthe chauki",
    "amenity": "hospital",
    "longitude": 83.7293472,
    "latitude": 27.5049362
  },
  {
    "name": "Rampur khadauna health post",
    "amenity": "hospital",
    "longitude": 83.7485733,
    "latitude": 27.450119
  },
  {
    "name": "Thulo khairetwa swathye chauki",
    "amenity": "hospital",
    "longitude": 83.7658005,
    "latitude": 27.436739
  },
  {
    "name": "Pratappur health post",
    "amenity": "hospital",
    "longitude": 83.8273468,
    "latitude": 27.4559689
  },
  {
    "name": "tilkpur health post",
    "amenity": "hospital",
    "longitude": 83.7337494,
    "latitude": 27.5601311
  },
  {
    "name": "chisapani aaspatal",
    "amenity": "hospital",
    "longitude": 83.7746513,
    "latitude": 27.5568277
  },
  {
    "name": "BBC medical hall",
    "amenity": "hospital",
    "longitude": 83.7842356,
    "latitude": 27.5571385
  },
  {
    "name": "susta samudaik swasth ikai kendra",
    "amenity": "hospital",
    "longitude": 83.8684235,
    "latitude": 27.3555164
  },
  {
    "name": "guthiparsauni aaurberd aausadhalay",
    "amenity": "hospital",
    "longitude": 83.809433,
    "latitude": 27.3996506
  },
  {
    "name": "Guthi parsauni health parsauni",
    "amenity": "hospital",
    "longitude": 83.8076096,
    "latitude": 27.4005699
  },
  {
    "name": "madhyabindu samudayik hospital",
    "amenity": "hospital",
    "longitude": 84.0905131,
    "latitude": 27.6268892
  },
  {
    "name": "Nisha Health Clinic",
    "amenity": "hospital",
    "longitude": 84.0473302,
    "latitude": 27.5776638
  },
  {
    "name": "चुरे हिल अस्पताल",
    "amenity": "hospital",
    "longitude": 85.0108088,
    "latitude": 27.4315735
  },
  {
    "name": "Aladi Health Post",
    "amenity": "hospital",
    "longitude": 83.8406111,
    "latitude": 27.9850467
  },
  {
    "name": "Ayushman Hospital Private Limited",
    "amenity": "hospital",
    "longitude": 85.308548,
    "latitude": 26.9440212
  },
  {
    "name": "Rautahat Grandy Hospital",
    "amenity": "hospital",
    "longitude": 85.3092346,
    "latitude": 26.9428234
  },
  {
    "name": "Medistar Hospital Put.Ltd",
    "amenity": "hospital",
    "longitude": 85.3210885,
    "latitude": 26.9679572
  },
  {
    "name": "Shivdarsan Central Hospital, Jethariya",
    "amenity": "hospital",
    "longitude": 85.2961761,
    "latitude": 26.8746314
  },
  {
    "name": "Time Health Care Center",
    "amenity": "hospital",
    "longitude": 83.7562144,
    "latitude": 27.9824514
  },
  {
    "name": "Mirdi Health Post",
    "amenity": "hospital",
    "longitude": 83.781561,
    "latitude": 27.9809044
  },
  {
    "name": "Madikhola Urban Health Center",
    "amenity": "hospital",
    "longitude": 83.747543,
    "latitude": 27.969452
  },
  {
    "name": "Khahare Urban Health Center",
    "amenity": "hospital",
    "longitude": 83.7884409,
    "latitude": 27.9936237
  },
  {
    "name": "Keware Bhajayang",
    "amenity": "hospital",
    "longitude": 83.8018422,
    "latitude": 27.9477875
  },
  {
    "name": "Jagatbhajyang Health Post",
    "amenity": "hospital",
    "longitude": 83.8183187,
    "latitude": 27.9647716
  },
  {
    "name": "Dudhkgola Urban Health Post",
    "amenity": "hospital",
    "longitude": 83.7388714,
    "latitude": 27.9860063
  },
  {
    "name": "Keware bhajayang Health Post",
    "amenity": "hospital",
    "longitude": 83.8018995,
    "latitude": 27.9479254
  },
  {
    "name": "CIWEC Hospital",
    "amenity": "hospital",
    "longitude": 85.3178811,
    "latitude": 27.7202714
  },
  {
    "name": "चाइना हस्पिटल (पी) लिमिटेड",
    "amenity": "hospital",
    "longitude": 85.3622164,
    "latitude": 27.7204629
  },
  {
    "name": "Family Beauty Parlour and Therapy Centre Pvt. Ltd.",
    "amenity": "hospital",
    "longitude": 85.3096796,
    "latitude": 27.7118011
  },
  {
    "name": "Prithivi Narayan Community Hospital",
    "amenity": "hospital",
    "longitude": 84.568735,
    "latitude": 27.9950409
  },
  {
    "name": "Aama baa hospital",
    "amenity": "hospital",
    "longitude": 84.6231248,
    "latitude": 27.9965989
  },
  {
    "name": "Baghauda Hospital",
    "amenity": "hospital",
    "longitude": 84.320655,
    "latitude": 27.45416
  },
  {
    "name": "कल्पना स्वास्थ्य सेवा केन्द्र",
    "amenity": "hospital",
    "longitude": 85.3006201,
    "latitude": 27.7670427
  },
  {
    "name": "Jay Buddha Hospital",
    "amenity": "hospital",
    "longitude": 84.4315492,
    "latitude": 27.6811711
  },
  {
    "name": "Shanti Hospital",
    "amenity": "hospital",
    "longitude": 84.4316313,
    "latitude": 27.6811392
  },
  {
    "name": "Om Hospital",
    "amenity": "hospital",
    "longitude": 84.4322248,
    "latitude": 27.6813682
  },
  {
    "name": "Bharatpur District Hospital",
    "amenity": "hospital",
    "longitude": 84.4363371,
    "latitude": 27.6821809
  },
  {
    "name": "life care hospital",
    "amenity": "hospital",
    "longitude": 84.4323063,
    "latitude": 27.6839862
  },
  {
    "name": "College Of Medical Sciences Teaching Hospital",
    "amenity": "hospital",
    "longitude": 84.4360734,
    "latitude": 27.6837229
  },
  {
    "name": "National Eye Hospital",
    "amenity": "hospital",
    "longitude": 84.4307855,
    "latitude": 27.6782161
  },
  {
    "name": "Bharatpur samudaik hospital",
    "amenity": "hospital",
    "longitude": 84.4335294,
    "latitude": 27.6809433
  },
  {
    "name": "Bharatpur Samaudayek Hospital",
    "amenity": "hospital",
    "longitude": 84.4334678,
    "latitude": 27.6806469
  },
  {
    "name": "पीपुल्स डेंटल कलेज र अस्पताल",
    "amenity": "hospital",
    "longitude": 85.3090847,
    "latitude": 27.7190481
  },
  {
    "name": "मनमोहन मेमोरियल अस्पताल",
    "amenity": "hospital",
    "longitude": 85.3112441,
    "latitude": 27.7179394
  },
  {
    "name": "सूर्यविनायक नगरपालिका हस्पिटल",
    "amenity": "hospital",
    "longitude": 85.391938,
    "latitude": 27.6565102
  },
  {
    "name": "Balkumari Maternity Hospital",
    "amenity": "hospital",
    "longitude": 84.4096154,
    "latitude": 27.6902999
  },
  {
    "name": "Gajuri Hospital",
    "amenity": "hospital",
    "longitude": 84.8793615,
    "latitude": 27.8052449
  },
  {
    "name": "Chitwan Ankha Hospital",
    "amenity": "hospital",
    "longitude": 84.4315618,
    "latitude": 27.6780877
  },
  {
    "name": "Advance Community Hospital",
    "amenity": "hospital",
    "longitude": 84.4319255,
    "latitude": 27.6813808
  },
  {
    "name": "asha hospital",
    "amenity": "hospital",
    "longitude": 84.4333861,
    "latitude": 27.6809481
  },
  {
    "name": "school of science",
    "amenity": "hospital",
    "longitude": 84.4140065,
    "latitude": 27.6809967
  },
  {
    "name": "जिल्ला अस्पताल रौतहट",
    "amenity": "hospital",
    "longitude": 85.2740257,
    "latitude": 26.765032
  },
  {
    "name": "Trinetra Eye Hospital Pvt. Ltd.",
    "amenity": "hospital",
    "longitude": 85.2757263,
    "latitude": 26.7563076
  },
  {
    "name": "Trinetra Aakha Aspatal",
    "amenity": "hospital",
    "longitude": 85.2765503,
    "latitude": 26.7561264
  },
  {
    "name": "Kirtipur Phect Hospital",
    "amenity": "hospital",
    "longitude": 85.2737269,
    "latitude": 27.6825389
  },
  {
    "name": "ओम समाज अस्पताल",
    "amenity": "hospital",
    "longitude": 85.2591226,
    "latitude": 27.6863982
  },
  {
    "name": "आधारभूत स्वास्थ्य केन्द्र",
    "amenity": "hospital",
    "longitude": 85.3793921,
    "latitude": 27.7071685
  },
  {
    "name": "नेपाल डायग्नोस्टिक सेन्टर प्रा. लि.",
    "amenity": "hospital",
    "longitude": 85.3116341,
    "latitude": 27.7010578
  },
  {
    "name": "सम्पदा फार्मा/क्लिनिक",
    "amenity": "hospital",
    "longitude": 85.2864354,
    "latitude": 27.6881267
  },
  {
    "name": "मोबाइल पशु चिकित्सा अस्पताल",
    "amenity": "hospital",
    "longitude": 85.3117739,
    "latitude": 27.6737417
  },
  {
    "name": "आरोग्य स्वस्थ्य सदन",
    "amenity": "hospital",
    "longitude": 85.3118401,
    "latitude": 27.6736946
  },
  {
    "name": "नागरिक सामुदायिक शिक्षण अस्पताल",
    "amenity": "hospital",
    "longitude": 85.3749053,
    "latitude": 27.6735853
  },
  {
    "name": "अस्तङ्गा आयुर्वेद अस्पताल तथा अनुसन्धान केन्द्र प्रा. लि",
    "amenity": "hospital",
    "longitude": 85.2827749,
    "latitude": 27.6926261
  },
  {
    "name": "नेपाल न्यासनल अस्पताल",
    "amenity": "hospital",
    "longitude": 85.2821685,
    "latitude": 27.6947253
  },
  {
    "name": "मानसिक शरण",
    "amenity": "hospital",
    "longitude": 85.3115909,
    "latitude": 27.6830328
  },
  {
    "name": "स्टार अस्पताल",
    "amenity": "hospital",
    "longitude": 85.3028341,
    "latitude": 27.6816645
  },
  {
    "name": "Melamchi hospital",
    "amenity": "hospital",
    "longitude": 85.5736008,
    "latitude": 27.8271086
  },
  {
    "name": "प्रसुती गृह",
    "amenity": "hospital",
    "longitude": 85.3187788,
    "latitude": 27.6894511
  },
  {
    "name": "काठमाडौं सिटी अस्पताल",
    "amenity": "hospital",
    "longitude": 85.2810043,
    "latitude": 27.6990905
  },
  {
    "name": "युनिभर्सल डेन्टल अस्पताल",
    "amenity": "hospital",
    "longitude": 85.280008,
    "latitude": 27.6990484
  },
  {
    "name": "दिव्या संजीवनी अस्पताल",
    "amenity": "hospital",
    "longitude": 85.2867623,
    "latitude": 27.7066149
  },
  {
    "name": "यती अस्पताल",
    "amenity": "hospital",
    "longitude": 85.2824017,
    "latitude": 27.7024512
  },
  {
    "name": "अल्का अस्पताल प्रा. लि.",
    "amenity": "hospital",
    "longitude": 85.3096819,
    "latitude": 27.6698644
  },
  {
    "name": "CHC Jauljibi",
    "amenity": "hospital",
    "longitude": 80.3842385,
    "latitude": 29.7524886
  },
  {
    "name": "Gawashi Policlinc pvt ltd",
    "amenity": "hospital",
    "longitude": 80.5521643,
    "latitude": 28.8123779
  },
  {
    "name": "Pathrene Swasthye Chauki",
    "amenity": "hospital",
    "longitude": 80.6333989,
    "latitude": 28.8891455
  },
  {
    "name": "Geta Swasthye Chauki",
    "amenity": "hospital",
    "longitude": 80.5557178,
    "latitude": 28.7795924
  },
  {
    "name": "Nisarga Hospital",
    "amenity": "hospital",
    "longitude": 80.5867348,
    "latitude": 28.708271
  },
  {
    "name": "Seti Zonal Hospital, Dhangadhi",
    "amenity": "hospital",
    "longitude": 80.5876112,
    "latitude": 28.7035346
  },
  {
    "name": "स्वास्थ्य चौकी",
    "amenity": "hospital",
    "longitude": 85.786819,
    "latitude": 28.018594
  },
  {
    "name": "Shaid Memorial Pharmacy",
    "amenity": "hospital",
    "longitude": 84.8884736,
    "latitude": 27.9133151
  },
  {
    "name": "दक्षिण एसियाली पोलिक्लिनिक तथा निदान केन्द्र",
    "amenity": "hospital",
    "longitude": 85.3261844,
    "latitude": 27.7390611
  },
  {
    "name": "Bishnapur Swastha Chauki",
    "amenity": "hospital",
    "longitude": 81.0241025,
    "latitude": 28.5120653
  },
  {
    "name": "Ayurbet Aausadalaya Ganeshman",
    "amenity": "hospital",
    "longitude": 80.9308331,
    "latitude": 28.4810765
  },
  {
    "name": "Bhajani PHC",
    "amenity": "hospital",
    "longitude": 80.9675475,
    "latitude": 28.5020652
  },
  {
    "name": "Sapkota clinic bhajani",
    "amenity": "hospital",
    "longitude": 80.9679306,
    "latitude": 28.4923355
  },
  {
    "name": "Jain Medical Store, Bhajani",
    "amenity": "hospital",
    "longitude": 80.9684551,
    "latitude": 28.4918324
  },
  {
    "name": "Sahari Swastha Chauki Charra",
    "amenity": "hospital",
    "longitude": 80.9297757,
    "latitude": 28.4871765
  },
  {
    "name": "Health Post Malika",
    "amenity": "hospital",
    "longitude": 81.6272483,
    "latitude": 28.7890783
  },
  {
    "name": "New Health Post Building",
    "amenity": "hospital",
    "longitude": 81.5442623,
    "latitude": 29.215728
  },
  {
    "name": "Old Health Post",
    "amenity": "hospital",
    "longitude": 81.5448256,
    "latitude": 29.2157228
  },
  {
    "name": "Health Post",
    "amenity": "hospital",
    "longitude": 81.5486725,
    "latitude": 29.2225021
  },
  {
    "name": "Health Post",
    "amenity": "hospital",
    "longitude": 81.5364303,
    "latitude": 29.2121281
  },
  {
    "name": "Prathamik Swasthya Kendra",
    "amenity": "hospital",
    "longitude": 81.5528749,
    "latitude": 29.1941177
  },
  {
    "name": "Health Post",
    "amenity": "hospital",
    "longitude": 81.5567721,
    "latitude": 29.193655
  },
  {
    "name": "Health Post",
    "amenity": "hospital",
    "longitude": 81.5688582,
    "latitude": 29.171987
  },
  {
    "name": "Health Post",
    "amenity": "hospital",
    "longitude": 81.5429329,
    "latitude": 29.1883039
  },
  {
    "name": "Health Post",
    "amenity": "hospital",
    "longitude": 81.5429132,
    "latitude": 29.1604971
  },
  {
    "name": "R.B Star Clinic and Pathological",
    "amenity": "hospital",
    "longitude": 81.5449154,
    "latitude": 29.1590807
  },
  {
    "name": "Health Post Lalu",
    "amenity": "hospital",
    "longitude": 81.5478525,
    "latitude": 29.1619892
  },
  {
    "name": "Eye Hospital Jaleshwor",
    "amenity": "hospital",
    "longitude": 85.8071973,
    "latitude": 26.6533476
  },
  {
    "name": "Ma Baoudhi Hospital Private Limited",
    "amenity": "hospital",
    "longitude": 85.9092256,
    "latitude": 26.7377381
  },
  {
    "name": "Janakpur Trauma Hospital",
    "amenity": "hospital",
    "longitude": 85.9125086,
    "latitude": 26.7294245
  },
  {
    "name": "Hilsa Hospital",
    "amenity": "hospital",
    "longitude": 81.3311622,
    "latitude": 30.1522132
  },
  {
    "name": "नेत्र उपचार केन्द्र पाटन आँखा अस्पताल",
    "amenity": "hospital",
    "longitude": 80.5503931,
    "latitude": 29.4635378
  },
  {
    "name": "Shikhar Dental Hospital",
    "amenity": "hospital",
    "longitude": 80.5532026,
    "latitude": 28.8117721
  },
  {
    "name": "DharmaRudhra Sewa",
    "amenity": "hospital",
    "longitude": 80.5527284,
    "latitude": 28.8066372
  },
  {
    "name": "Meri Stop Community Services Centre",
    "amenity": "hospital",
    "longitude": 80.5536999,
    "latitude": 28.8146889
  },
  {
    "name": "Malakheti Hospital",
    "amenity": "hospital",
    "longitude": 80.5377972,
    "latitude": 28.8144889
  },
  {
    "name": "Maya Metro Hospital",
    "amenity": "hospital",
    "longitude": 80.5684509,
    "latitude": 28.7111851
  },
  {
    "name": "Badeha Swasthye Chauki",
    "amenity": "hospital",
    "longitude": 80.5936483,
    "latitude": 28.7751017
  },
  {
    "name": "Rama Memorial Hospital",
    "amenity": "hospital",
    "longitude": 85.9256377,
    "latitude": 26.7519061
  },
  {
    "name": "Jagdish Ramrati Hospital Private Limited",
    "amenity": "hospital",
    "longitude": 85.8963134,
    "latitude": 26.7576707
  },
  {
    "name": "District Health Organization",
    "amenity": "hospital",
    "longitude": 80.6810633,
    "latitude": 29.6037267
  },
  {
    "name": "Nawala Nagar Health Center",
    "amenity": "hospital",
    "longitude": 80.7091,
    "latitude": 29.6546667
  },
  {
    "name": "Bhaidesaina Birth Center",
    "amenity": "hospital",
    "longitude": 80.7192533,
    "latitude": 29.66735
  },
  {
    "name": "Ronal chaud Municipal Health Center",
    "amenity": "hospital",
    "longitude": 80.7491273,
    "latitude": 29.5686289
  },
  {
    "name": "Sharmali Birth Center",
    "amenity": "hospital",
    "longitude": 80.7102592,
    "latitude": 29.6345194
  },
  {
    "name": "Pinnacle Hospital",
    "amenity": "hospital",
    "longitude": 85.8941574,
    "latitude": 26.9902554
  },
  {
    "name": "IRDS Samaj Sahakari Aspatal",
    "amenity": "hospital",
    "longitude": 85.89534,
    "latitude": 26.9868431
  },
  {
    "name": "Pinacle Hospital",
    "amenity": "hospital",
    "longitude": 85.893941,
    "latitude": 26.9905133
  },
  {
    "name": "Rukmini Hospital Pvt. Ltd., Chhipridaha",
    "amenity": "hospital",
    "longitude": 82.6186832,
    "latitude": 28.6178767
  },
  {
    "name": "Primary Hospital, Bahun Thana",
    "amenity": "hospital",
    "longitude": 82.6281557,
    "latitude": 28.6175961
  },
  {
    "name": "Gajaun Gramin Swassthya Ekai",
    "amenity": "hospital",
    "longitude": 81.196705,
    "latitude": 29.6474217
  },
  {
    "name": "Saamudaik swosta ekai",
    "amenity": "hospital",
    "longitude": 80.9102766,
    "latitude": 29.6329371
  },
  {
    "name": "Kachali Birthing Center",
    "amenity": "hospital",
    "longitude": 80.897976,
    "latitude": 29.646449
  },
  {
    "name": "Dahabagar Swasthya Chauki",
    "amenity": "hospital",
    "longitude": 80.9183219,
    "latitude": 29.6138842
  },
  {
    "name": "Kafalseri health post",
    "amenity": "hospital",
    "longitude": 80.8100587,
    "latitude": 29.6450002
  },
  {
    "name": "देउलिकोट सामुदायिक स्वास्थ इकाइ केन्द्र पातल",
    "amenity": "hospital",
    "longitude": 80.8016919,
    "latitude": 29.5688689
  },
  {
    "name": "Bhatana Municipal Health Center",
    "amenity": "hospital",
    "longitude": 80.7740017,
    "latitude": 29.6204233
  },
  {
    "name": "Aradi Birthing Center",
    "amenity": "hospital",
    "longitude": 80.8553651,
    "latitude": 29.6128174
  },
  {
    "name": "New Padma Hospital",
    "amenity": "hospital",
    "longitude": 80.5608601,
    "latitude": 29.0851166
  },
  {
    "name": "Eye Treatment and Surgical Centre Dhabauli",
    "amenity": "hospital",
    "longitude": 85.7840874,
    "latitude": 26.6435799
  },
  {
    "name": "Panchthar Hospital",
    "amenity": "hospital",
    "longitude": 87.7657898,
    "latitude": 27.1477905
  },
  {
    "name": "B and C",
    "amenity": "hospital",
    "longitude": 87.9980958,
    "latitude": 26.6448607
  },
  {
    "name": "Lifeguard Hospital",
    "amenity": "hospital",
    "longitude": 87.2755094,
    "latitude": 26.4728365
  },
  {
    "name": "Tapadiya Eye Hospital Pvt. Ltd",
    "amenity": "hospital",
    "longitude": 87.2867301,
    "latitude": 26.4725977
  },
  {
    "name": "R.K children's hospital",
    "amenity": "hospital",
    "longitude": 87.2908758,
    "latitude": 26.4590078
  },
  {
    "name": "Nepal Red Cross Society Regional Blood Transfusion Service Center",
    "amenity": "hospital",
    "longitude": 87.2864933,
    "latitude": 26.4584858
  },
  {
    "name": "Abadh Narayan Nursing Home",
    "amenity": "hospital",
    "longitude": 87.283504,
    "latitude": 26.4609734
  },
  {
    "name": "Koshi Nursing Home",
    "amenity": "hospital",
    "longitude": 87.2848794,
    "latitude": 26.453235
  },
  {
    "name": "General Hospital and Trauma Care Center",
    "amenity": "hospital",
    "longitude": 87.2844097,
    "latitude": 26.4537187
  },
  {
    "name": "Green Cross Hospital",
    "amenity": "hospital",
    "longitude": 87.2827448,
    "latitude": 26.4580277
  },
  {
    "name": "Sanjeevani Hospital and IVF Center Pvt. Ltd",
    "amenity": "hospital",
    "longitude": 87.2847376,
    "latitude": 26.4582881
  },
  {
    "name": "Get Well Hospital",
    "amenity": "hospital",
    "longitude": 87.2835727,
    "latitude": 26.4582971
  },
  {
    "name": "AIMS Hospital and Cancer Center Pvt.Ltd",
    "amenity": "hospital",
    "longitude": 87.2838734,
    "latitude": 26.4584028
  },
  {
    "name": "Golden Hospital",
    "amenity": "hospital",
    "longitude": 87.2842235,
    "latitude": 26.458525
  },
  {
    "name": "RamLal Golchha Eye Hospital",
    "amenity": "hospital",
    "longitude": 87.2845735,
    "latitude": 26.4637236
  },
  {
    "name": "Biratnagar City Hospital Pvt.Ltd",
    "amenity": "hospital",
    "longitude": 87.2827613,
    "latitude": 26.4593237
  },
  {
    "name": "Suraksha Aspatal Pvt.Ltd",
    "amenity": "hospital",
    "longitude": 87.2845785,
    "latitude": 26.4613882
  },
  {
    "name": "Nepal Anti Tuberclosis Association (NATA) MORANG",
    "amenity": "hospital",
    "longitude": 87.2845691,
    "latitude": 26.4589524
  },
  {
    "name": "Golden Hospital",
    "amenity": "hospital",
    "longitude": 87.2843481,
    "latitude": 26.4582486
  },
  {
    "name": "Biratnagar Aspatal Pvt.Ltd",
    "amenity": "hospital",
    "longitude": 87.2782934,
    "latitude": 26.4666099
  },
  {
    "name": "Saptakoshi Hospital & Nursing Home",
    "amenity": "hospital",
    "longitude": 87.2776321,
    "latitude": 26.4472181
  },
  {
    "name": "Birat Eye Hospital Pvt.Ltd",
    "amenity": "hospital",
    "longitude": 87.2796634,
    "latitude": 26.4376468
  },
  {
    "name": "Saptakoshi Hospital Pvt. Ltd",
    "amenity": "hospital",
    "longitude": 87.2775904,
    "latitude": 26.447476
  },
  {
    "name": "Phikkal Hospital",
    "amenity": "hospital",
    "longitude": 88.0715599,
    "latitude": 26.8927337
  },
  {
    "name": "MAX International Hospital and Trauma Center Pvt.Ltd",
    "amenity": "hospital",
    "longitude": 87.2770255,
    "latitude": 26.4540202
  },
  {
    "name": "Namaste Public Hospital",
    "amenity": "hospital",
    "longitude": 87.692151,
    "latitude": 26.6596291
  },
  {
    "name": "Om Mechi Hospital",
    "amenity": "hospital",
    "longitude": 87.7034991,
    "latitude": 26.6594632
  },
  {
    "name": "Damak Red Cross Society",
    "amenity": "hospital",
    "longitude": 87.7040517,
    "latitude": 26.6568256
  },
  {
    "name": "Nijon Skin Hospital",
    "amenity": "hospital",
    "longitude": 87.692313,
    "latitude": 26.6604095
  },
  {
    "name": "Delphi Skin Care Hospital",
    "amenity": "hospital",
    "longitude": 87.6972748,
    "latitude": 26.6624083
  },
  {
    "name": "HCH Hospital",
    "amenity": "hospital",
    "longitude": 86.1307894,
    "latitude": 27.6451347
  },
  {
    "name": "District Hospital Ilam",
    "amenity": "hospital",
    "longitude": 87.9266972,
    "latitude": 26.9091887
  },
  {
    "name": "Sagarmatha Choudhary Eye Hospital",
    "amenity": "hospital",
    "longitude": 86.4922295,
    "latitude": 26.7087048
  },
  {
    "name": "Friends Model Hospital",
    "amenity": "hospital",
    "longitude": 86.4893488,
    "latitude": 26.7098243
  },
  {
    "name": "BNB Ortho Truma Pvt. Ltd.",
    "amenity": "hospital",
    "longitude": 86.4847946,
    "latitude": 26.7113323
  },
  {
    "name": "Lahan Cancer Care Center",
    "amenity": "hospital",
    "longitude": 86.4802399,
    "latitude": 26.7190647
  },
  {
    "name": "Primary Health Care Center, Chatara",
    "amenity": "hospital",
    "longitude": 87.1645279,
    "latitude": 26.817627
  },
  {
    "name": "Barahakshetra Nagar Hospital",
    "amenity": "hospital",
    "longitude": 87.1363525,
    "latitude": 26.745348
  },
  {
    "name": "Janabhawana Homiopatic",
    "amenity": "hospital",
    "longitude": 87.343498,
    "latitude": 26.971453
  },
  {
    "name": "Dr. Ram Prasad Pokharel Eye Hospital",
    "amenity": "hospital",
    "longitude": 87.3369312,
    "latitude": 26.9831624
  },
  {
    "name": "Dolakha Lions Eye Centre",
    "amenity": "hospital",
    "longitude": 86.0757181,
    "latitude": 27.6795302
  },
  {
    "name": "Rajbiraj Eye General Hospital",
    "amenity": "hospital",
    "longitude": 86.752327,
    "latitude": 26.5345001
  },
  {
    "name": "Dr.Dilip Prasuti Stri Rog Clinic",
    "amenity": "hospital",
    "longitude": 86.7506104,
    "latitude": 26.5350075
  },
  {
    "name": "District Community Eye Center",
    "amenity": "hospital",
    "longitude": 85.7115045,
    "latitude": 27.7797853
  },
  {
    "name": "Janakpur General Hospital",
    "amenity": "hospital",
    "longitude": 85.9933417,
    "latitude": 26.7853467
  },
  {
    "name": "AMDA Hospital",
    "amenity": "hospital",
    "longitude": 87.688325,
    "latitude": 26.674605
  },
  {
    "name": "Deulekh Hospital",
    "amenity": "hospital",
    "longitude": 80.8193072,
    "latitude": 29.5218366
  },
  {
    "name": "Deulekh Hospital",
    "amenity": "hospital",
    "longitude": 80.8194624,
    "latitude": 29.522199
  },
  {
    "name": "Syandi Health Post.",
    "amenity": "hospital",
    "longitude": 80.7944307,
    "latitude": 29.5369944
  },
  {
    "name": "Krishna Eye Care And Optical Center",
    "amenity": "hospital",
    "longitude": 86.8554552,
    "latitude": 26.5083285
  },
  {
    "name": "Bijay Raj Hospital",
    "amenity": "hospital",
    "longitude": 87.3143041,
    "latitude": 27.0352458
  },
  {
    "name": "Beladevipur Swasthye Chauki",
    "amenity": "hospital",
    "longitude": 80.642678,
    "latitude": 28.758324
  },
  {
    "name": "Panalta Health Post",
    "amenity": "hospital",
    "longitude": 81.3175104,
    "latitude": 29.6361509
  },
  {
    "name": "Bhadsain Health Post",
    "amenity": "hospital",
    "longitude": 80.9188235,
    "latitude": 29.5351852
  },
  {
    "name": "Bhadikot Health Post",
    "amenity": "hospital",
    "longitude": 80.9286337,
    "latitude": 29.478759
  },
  {
    "name": "Sunikot Health Post",
    "amenity": "hospital",
    "longitude": 81.2294582,
    "latitude": 29.5899811
  },
  {
    "name": "Talkot Hospital",
    "amenity": "hospital",
    "longitude": 81.2009074,
    "latitude": 29.6213045
  },
  {
    "name": "District hospital",
    "amenity": "hospital",
    "longitude": 82.8905635,
    "latitude": 28.9573609
  },
  {
    "name": "Health post",
    "amenity": "hospital",
    "longitude": 81.7656371,
    "latitude": 29.1382472
  },
  {
    "name": "Health Post Chilkhaya",
    "amenity": "hospital",
    "longitude": 81.795452,
    "latitude": 29.1125935
  },
  {
    "name": "Bhairabsthan Samudaik Swasthya Ekai Kendra",
    "amenity": "hospital",
    "longitude": 80.9645511,
    "latitude": 29.5208263
  },
  {
    "name": "Saldang health post",
    "amenity": "hospital",
    "longitude": 83.0797709,
    "latitude": 29.3847933
  },
  {
    "name": "Health Post",
    "amenity": "hospital",
    "longitude": 82.9768597,
    "latitude": 28.8889351
  },
  {
    "name": "Health Post",
    "amenity": "hospital",
    "longitude": 81.5956829,
    "latitude": 29.1685782
  },
  {
    "name": "Ratu Healthpost",
    "amenity": "hospital",
    "longitude": 81.6825001,
    "latitude": 28.6454076
  },
  {
    "name": "Ratu Healthpost Khop Kendra",
    "amenity": "hospital",
    "longitude": 81.6826116,
    "latitude": 28.6458571
  },
  {
    "name": "Community Eye Care Centre",
    "amenity": "hospital",
    "longitude": 81.603606,
    "latitude": 28.857036
  },
  {
    "name": "Bawun Gaun Sub-Health Post",
    "amenity": "hospital",
    "longitude": 81.601479,
    "latitude": 28.85791
  },
  {
    "name": "Ashram Hospital",
    "amenity": "hospital",
    "longitude": 81.6034984,
    "latitude": 28.8586121
  },
  {
    "name": "Gauri Health Post",
    "amenity": "hospital",
    "longitude": 81.65544,
    "latitude": 28.77549
  },
  {
    "name": "Badakholi Basic Health Care Center",
    "amenity": "hospital",
    "longitude": 81.8376267,
    "latitude": 28.400747
  },
  {
    "name": "Smarika Hospital Pvt. Ltd",
    "amenity": "hospital",
    "longitude": 81.8911815,
    "latitude": 28.4191322
  },
  {
    "name": "Botechaur Urban Health Center",
    "amenity": "hospital",
    "longitude": 81.8913729,
    "latitude": 28.4198829
  },
  {
    "name": "Mehelkuna Hospital",
    "amenity": "hospital",
    "longitude": 81.8495892,
    "latitude": 28.4364712
  },
  {
    "name": "Mehalkuna Eye Care Center",
    "amenity": "hospital",
    "longitude": 81.849145,
    "latitude": 28.4363682
  },
  {
    "name": "Kopchi Urban Health Center",
    "amenity": "hospital",
    "longitude": 81.8443508,
    "latitude": 28.4243682
  },
  {
    "name": "Sahare Health Post",
    "amenity": "hospital",
    "longitude": 81.8944013,
    "latitude": 28.3867431
  },
  {
    "name": "Ghumkhare Health Post",
    "amenity": "hospital",
    "longitude": 81.8977037,
    "latitude": 28.4379119
  },
  {
    "name": "Timmure Urban Health Center",
    "amenity": "hospital",
    "longitude": 81.969387,
    "latitude": 28.3955723
  },
  {
    "name": "Laxmimarga-Dangihat hospital",
    "amenity": "hospital",
    "longitude": 87.4493976,
    "latitude": 26.6525245
  },
  {
    "name": "Health Post-PHC Dasharathpur",
    "amenity": "hospital",
    "longitude": 81.7589768,
    "latitude": 28.4898958
  },
  {
    "name": "Kot Urban Health Post",
    "amenity": "hospital",
    "longitude": 81.9228168,
    "latitude": 28.4028281
  },
  {
    "name": "Dharapani Health Post",
    "amenity": "hospital",
    "longitude": 81.9448873,
    "latitude": 28.4045572
  },
  {
    "name": "Red Cross Society Office",
    "amenity": "hospital",
    "longitude": 87.2870304,
    "latitude": 26.8253483
  },
  {
    "name": "Nagar Aadharbhut Aspatal",
    "amenity": "hospital",
    "longitude": 87.2776871,
    "latitude": 26.5914516
  },
  {
    "name": "HealthPost Jarbuta",
    "amenity": "hospital",
    "longitude": 81.6542881,
    "latitude": 28.6113964
  },
  {
    "name": "katuka Health Post",
    "amenity": "hospital",
    "longitude": 81.6254135,
    "latitude": 28.6027451
  },
  {
    "name": "Aadharbhut Health Center",
    "amenity": "hospital",
    "longitude": 81.5973624,
    "latitude": 28.6023488
  },
  {
    "name": "Ramechhap District Hospital",
    "amenity": "hospital",
    "longitude": 86.087084,
    "latitude": 27.3157801
  },
  {
    "name": "District Eye Hospital",
    "amenity": "hospital",
    "longitude": 81.6074726,
    "latitude": 29.1518345
  },
  {
    "name": "COVID19 Hospital",
    "amenity": "hospital",
    "longitude": 81.6046013,
    "latitude": 29.1528505
  },
  {
    "name": "Hospital",
    "amenity": "hospital",
    "longitude": 82.227301,
    "latitude": 29.3047037
  },
  {
    "name": "Health Post",
    "amenity": "hospital",
    "longitude": 81.6036511,
    "latitude": 29.2694013
  },
  {
    "name": "COVID-19 Hospital",
    "amenity": "hospital",
    "longitude": 81.5999939,
    "latitude": 29.242017
  },
  {
    "name": "Health Post",
    "amenity": "hospital",
    "longitude": 81.6079514,
    "latitude": 29.2424353
  },
  {
    "name": "Animal Hospital",
    "amenity": "hospital",
    "longitude": 81.6077455,
    "latitude": 29.2424757
  },
  {
    "name": "Health Post",
    "amenity": "hospital",
    "longitude": 81.6011117,
    "latitude": 29.2377779
  },
  {
    "name": "Sipkhana Health Post",
    "amenity": "hospital",
    "longitude": 81.620483,
    "latitude": 29.2589019
  },
  {
    "name": "Health Post",
    "amenity": "hospital",
    "longitude": 81.6359268,
    "latitude": 29.2560795
  },
  {
    "name": "Syuna Health Post",
    "amenity": "hospital",
    "longitude": 81.637117,
    "latitude": 29.2378118
  },
  {
    "name": "Raskot Community Hospital",
    "amenity": "hospital",
    "longitude": 81.6361696,
    "latitude": 29.2403857
  },
  {
    "name": "Health Post",
    "amenity": "hospital",
    "longitude": 81.6072111,
    "latitude": 29.2103126
  },
  {
    "name": "Tsho Rolpa Hospital",
    "amenity": "hospital",
    "longitude": 86.047459,
    "latitude": 27.6643429
  },
  {
    "name": "Dolakha Samudayik Hospital",
    "amenity": "hospital",
    "longitude": 86.046197,
    "latitude": 27.6658833
  },
  {
    "name": "Charikot Hospital",
    "amenity": "hospital",
    "longitude": 86.049398,
    "latitude": 27.6716126
  },
  {
    "name": "जिल्ला स्वास्थ्य कार्यालय",
    "amenity": "hospital",
    "longitude": 86.049564,
    "latitude": 27.6713156
  },
  {
    "name": "स्वास्थ्य चौकी",
    "amenity": "hospital",
    "longitude": 86.0493338,
    "latitude": 27.6714894
  },
  {
    "name": "Gaurishankar General Hospital",
    "amenity": "hospital",
    "longitude": 86.0752611,
    "latitude": 27.6796691
  },
  {
    "name": "Karnali Care Hospital",
    "amenity": "hospital",
    "longitude": 81.6020373,
    "latitude": 28.5983842
  },
  {
    "name": "BP Koirala Institute of Health Science",
    "amenity": "hospital",
    "longitude": 87.2675932,
    "latitude": 26.8095561
  },
  {
    "name": "Latikoili Healthpost",
    "amenity": "hospital",
    "longitude": 81.6062377,
    "latitude": 28.5754301
  },
  {
    "name": "Singati Community Hospital",
    "amenity": "hospital",
    "longitude": 86.1605955,
    "latitude": 27.736213
  },
  {
    "name": "ओम साइ पाथिभारा अस्पताल तथा अनुसन्धान केनद्र",
    "amenity": "hospital",
    "longitude": 88.0803749,
    "latitude": 26.5599901
  },
  {
    "name": "Mahila Samudhaik Hospital",
    "amenity": "hospital",
    "longitude": 88.0505173,
    "latitude": 26.7213681
  },
  {
    "name": "Budhabare Health Post",
    "amenity": "hospital",
    "longitude": 88.0490912,
    "latitude": 26.7196758
  },
  {
    "name": "Primary Health Post, Chainpur",
    "amenity": "hospital",
    "longitude": 87.319959,
    "latitude": 27.2954348
  },
  {
    "name": "sabaila health post",
    "amenity": "hospital",
    "longitude": 86.0896257,
    "latitude": 26.801766
  },
  {
    "name": "hatuwagadi gaupalika",
    "amenity": "hospital",
    "longitude": 87.1208862,
    "latitude": 27.0216168
  },
  {
    "name": "श्रमजिवी केयर अस्पताल प्रा.लि",
    "amenity": "hospital",
    "longitude": 86.4177088,
    "latitude": 26.748521
  },
  {
    "name": "नारायणपुर अस्पताल",
    "amenity": "hospital",
    "longitude": 86.3896834,
    "latitude": 26.7654832
  },
  {
    "name": "आर.के. मेडिसिटि अस्पताल",
    "amenity": "hospital",
    "longitude": 86.3834183,
    "latitude": 26.7700741
  },
  {
    "name": "Khoksi Sub-Hospital खोक्सी अस्पताल",
    "amenity": "hospital",
    "longitude": 86.3600175,
    "latitude": 26.6206021
  },
  {
    "name": "Chamunda bindrasaini bindrasaini pandhra saiyako hospital",
    "amenity": "hospital",
    "longitude": 81.5198732,
    "latitude": 28.9071312
  },
  {
    "name": "Unique Model Hospital",
    "amenity": "hospital",
    "longitude": 86.2127716,
    "latitude": 26.7673922
  },
  {
    "name": "Ma Bhawani Hospital",
    "amenity": "hospital",
    "longitude": 86.2080539,
    "latitude": 26.7621514
  },
  {
    "name": "Health Post at Katrait",
    "amenity": "hospital",
    "longitude": 85.9728129,
    "latitude": 26.7535553
  },
  {
    "name": "Health Post",
    "amenity": "hospital",
    "longitude": 85.9910239,
    "latitude": 26.7592515
  },
  {
    "name": "Naulapur Healthpost",
    "amenity": "hospital",
    "longitude": 81.6246386,
    "latitude": 28.5917116
  },
  {
    "name": "Shuva Laxmi Hospital",
    "amenity": "hospital",
    "longitude": 81.6260002,
    "latitude": 28.5904561
  },
  {
    "name": "Ghumkhare Health Post",
    "amenity": "hospital",
    "longitude": 81.8976981,
    "latitude": 28.4379939
  },
  {
    "name": "Aapgaira Urban Health Center",
    "amenity": "hospital",
    "longitude": 81.9220351,
    "latitude": 28.4563805
  },
  {
    "name": "Bhedabari Basic Health Care Center",
    "amenity": "hospital",
    "longitude": 81.8795351,
    "latitude": 28.4291669
  },
  {
    "name": "Baikadha Urban Health Center",
    "amenity": "hospital",
    "longitude": 81.9528436,
    "latitude": 28.4328454
  },
  {
    "name": "Santada Hospital",
    "amenity": "hospital",
    "longitude": 81.8506511,
    "latitude": 28.7900845
  },
  {
    "name": "Dharmeshwor Hospital",
    "amenity": "hospital",
    "longitude": 86.8792263,
    "latitude": 26.6445477
  },
  {
    "name": "unique collage of medecal science and hospital",
    "amenity": "hospital",
    "longitude": 86.7226564,
    "latitude": 26.5989884
  },
  {
    "name": "Sagarmatha Chaudhary Eye Hospital Rajbiraj",
    "amenity": "hospital",
    "longitude": 86.7466118,
    "latitude": 26.5565363
  },
  {
    "name": "शिवपुर सहरी स्वस्थ्य केन्द्र",
    "amenity": "hospital",
    "longitude": 82.4115989,
    "latitude": 28.0985854
  },
  {
    "name": "नारायणपुर स्वास्थ प्रवर्धन केन्द्र",
    "amenity": "hospital",
    "longitude": 82.4065416,
    "latitude": 28.0551271
  },
  {
    "name": "छिल्लिकोट सामुदायिक स्वास्थ्य इकाई",
    "amenity": "hospital",
    "longitude": 82.3981031,
    "latitude": 28.1514459
  },
  {
    "name": "उदयपुर जिल्ला अस्पताल",
    "amenity": "hospital",
    "longitude": 86.6958779,
    "latitude": 26.7976712
  },
  {
    "name": "Adharbhut Swasthya Sewa",
    "amenity": "hospital",
    "longitude": 81.6382231,
    "latitude": 28.5966365
  },
  {
    "name": "Surkhet Hospital",
    "amenity": "hospital",
    "longitude": 81.6081497,
    "latitude": 28.595657
  },
  {
    "name": "Health Post Katukuwa",
    "amenity": "hospital",
    "longitude": 81.6171864,
    "latitude": 28.6008752
  },
  {
    "name": "Surkhet Aakha hospital",
    "amenity": "hospital",
    "longitude": 81.6180412,
    "latitude": 28.5994921
  },
  {
    "name": "Marie Stopes Center",
    "amenity": "hospital",
    "longitude": 81.6094028,
    "latitude": 28.59495
  },
  {
    "name": "कोभिड विशेष अस्पताल पुतलाचौर रोल्पा",
    "amenity": "hospital",
    "longitude": 82.5421143,
    "latitude": 28.4778347
  },
  {
    "name": "Gamaudi Sub Health Post",
    "amenity": "hospital",
    "longitude": 81.642723,
    "latitude": 28.8346
  },
  {
    "name": "Malika Health Post",
    "amenity": "hospital",
    "longitude": 81.639105,
    "latitude": 28.792453
  },
  {
    "name": "Kalbhairab Health Post",
    "amenity": "hospital",
    "longitude": 81.658024,
    "latitude": 28.8157794
  },
  {
    "name": "Chiudi Pushakot Dullu 6",
    "amenity": "hospital",
    "longitude": 81.6307171,
    "latitude": 28.8280859
  },
  {
    "name": "Kharpunath Hospital",
    "amenity": "hospital",
    "longitude": 81.8764092,
    "latitude": 29.9174858
  },
  {
    "name": "Himalaya Community Hospital",
    "amenity": "hospital",
    "longitude": 81.950439,
    "latitude": 29.7793467
  },
  {
    "name": "Health Post",
    "amenity": "hospital",
    "longitude": 81.5954643,
    "latitude": 29.294549
  },
  {
    "name": "Health Post",
    "amenity": "hospital",
    "longitude": 81.592263,
    "latitude": 29.2618586
  },
  {
    "name": "Health Post",
    "amenity": "hospital",
    "longitude": 81.7089019,
    "latitude": 29.2813012
  },
  {
    "name": "OPD Health Post",
    "amenity": "hospital",
    "longitude": 81.6444495,
    "latitude": 29.2504678
  },
  {
    "name": "o",
    "amenity": "hospital",
    "longitude": 82.6214686,
    "latitude": 29.013975
  },
  {
    "name": "Kalika Family Health Hospital",
    "amenity": "hospital",
    "longitude": 82.5500357,
    "latitude": 29.0224524
  },
  {
    "name": "xota pharmacy",
    "amenity": "hospital",
    "longitude": 81.5588683,
    "latitude": 29.0179249
  },
  {
    "name": "कुची स्वास्थ्य चौकी",
    "amenity": "hospital",
    "longitude": 81.4137436,
    "latitude": 29.0569946
  },
  {
    "name": "Kaprigau Health Post",
    "amenity": "hospital",
    "longitude": 81.0774902,
    "latitude": 29.5122713
  },
  {
    "name": "तुर्माखाद अस्पताल",
    "amenity": "hospital",
    "longitude": 81.3688431,
    "latitude": 28.9422054
  },
  {
    "name": "थपुवा आयुर्वेदिक अस्पताल",
    "amenity": "hospital",
    "longitude": 81.5778427,
    "latitude": 28.1942368
  },
  {
    "name": "Khop Kendra Gausala Mandir",
    "amenity": "hospital",
    "longitude": 81.7084429,
    "latitude": 28.0743646
  },
  {
    "name": "टिबि नेपाल नेपालगन्ज क्षयरोग रेफरल सेन्टर",
    "amenity": "hospital",
    "longitude": 81.6319845,
    "latitude": 28.0610164
  },
  {
    "name": "Janapriya Hospital",
    "amenity": "hospital",
    "longitude": 83.9769179,
    "latitude": 28.2066295
  },
  {
    "name": "शान्तिनगर स्वास्थ्य चौकी",
    "amenity": "hospital",
    "longitude": 82.2190927,
    "latitude": 28.1568757
  },
  {
    "name": "राप्ती क्षेत्रीय आयुर्वेदिक अस्पताल",
    "amenity": "hospital",
    "longitude": 82.2870478,
    "latitude": 28.1325191
  },
  {
    "name": "बिनोद प्याथोलोजी एण्ड ज्योती मेडिकल हल",
    "amenity": "hospital",
    "longitude": 82.2981575,
    "latitude": 28.1318757
  },
  {
    "name": "हेकुली स्वास्थ्य चौकी",
    "amenity": "hospital",
    "longitude": 82.2051814,
    "latitude": 28.0957343
  },
  {
    "name": "राप्ती प्रादेशिक अस्पताल",
    "amenity": "hospital",
    "longitude": 82.2975782,
    "latitude": 28.1358849
  },
  {
    "name": "दोघर्रे स्वास्थ्य चौकी",
    "amenity": "hospital",
    "longitude": 82.2888637,
    "latitude": 28.1328597
  },
  {
    "name": "Pratapkot Health Post",
    "amenity": "hospital",
    "longitude": 82.2920273,
    "latitude": 28.2117142
  },
  {
    "name": "आधारभुत स्वास्थ्य केन्द्र, बबर्पुर",
    "amenity": "hospital",
    "longitude": 82.0907081,
    "latitude": 28.1905137
  },
  {
    "name": "हापुरे प्राथमिक अस्पताल",
    "amenity": "hospital",
    "longitude": 82.1240607,
    "latitude": 28.193649
  },
  {
    "name": "Tarku Primary Health Center",
    "amenity": "hospital",
    "longitude": 84.399858,
    "latitude": 28.1430295
  },
  {
    "name": "Nepal Red Cross Society, Nsmsrjung Sub Chapter",
    "amenity": "hospital",
    "longitude": 84.1107204,
    "latitude": 28.3296534
  },
  {
    "name": "Manang Health Post",
    "amenity": "hospital",
    "longitude": 84.0236087,
    "latitude": 28.6663006
  },
  {
    "name": "Annapurna Bal Tatha Mahila Hospital",
    "amenity": "hospital",
    "longitude": 84.0059428,
    "latitude": 28.2031193
  },
  {
    "name": "Sishuwa Hospital",
    "amenity": "hospital",
    "longitude": 84.0660882,
    "latitude": 28.1659898
  },
  {
    "name": "Chandrawati Vaccination Center",
    "amenity": "hospital",
    "longitude": 84.3726012,
    "latitude": 28.0712288
  },
  {
    "name": "Kaushila Memorial Hospital",
    "amenity": "hospital",
    "longitude": 81.6701584,
    "latitude": 28.1585159
  },
  {
    "name": "कृपा हस्पिटल",
    "amenity": "hospital",
    "longitude": 81.6140096,
    "latitude": 28.0495437
  },
  {
    "name": "Bishesagya Children's Hospital",
    "amenity": "hospital",
    "longitude": 81.6140979,
    "latitude": 28.0546674
  },
  {
    "name": "Specialist Hospital pvt ltd",
    "amenity": "hospital",
    "longitude": 81.6139383,
    "latitude": 28.0547162
  },
  {
    "name": "साइनिङ अस्पताल",
    "amenity": "hospital",
    "longitude": 81.6142044,
    "latitude": 28.0878029
  },
  {
    "name": "सिद्धान्त अस्पताल",
    "amenity": "hospital",
    "longitude": 81.6164511,
    "latitude": 28.053963
  },
  {
    "name": "Health care aspatal tatha prasutigriha",
    "amenity": "hospital",
    "longitude": 81.6182031,
    "latitude": 28.0523238
  },
  {
    "name": "Western Hospital",
    "amenity": "hospital",
    "longitude": 81.6172203,
    "latitude": 28.0524772
  },
  {
    "name": "Baseri Health Post",
    "amenity": "hospital",
    "longitude": 84.8548989,
    "latitude": 28.0986438
  },
  {
    "name": "सुशील कोइराला प्रखर क्यान्सर अस्पताल",
    "amenity": "hospital",
    "longitude": 81.5731403,
    "latitude": 28.1295462
  },
  {
    "name": "Bhukatangle Health Post",
    "amenity": "hospital",
    "longitude": 83.7446105,
    "latitude": 28.3157585
  },
  {
    "name": "MHP Dohali SHP",
    "amenity": "hospital",
    "longitude": 83.2119,
    "latitude": 28.18323
  },
  {
    "name": "MHP Arjee SHP",
    "amenity": "hospital",
    "longitude": 83.17835,
    "latitude": 28.18547
  },
  {
    "name": "MHP Aaglung SHP",
    "amenity": "hospital",
    "longitude": 83.03344,
    "latitude": 28.21695
  },
  {
    "name": "MHP Arkhawang SHP",
    "amenity": "hospital",
    "longitude": 83.11939,
    "latitude": 28.21791
  },
  {
    "name": "MHP Neta SHP",
    "amenity": "hospital",
    "longitude": 83.18134,
    "latitude": 28.24374
  },
  {
    "name": "Deurali Health Post",
    "amenity": "hospital",
    "longitude": 83.7214831,
    "latitude": 28.301832
  },
  {
    "name": "MHP Dhurkot PHC (PHCC)",
    "amenity": "hospital",
    "longitude": 83.14954,
    "latitude": 28.11648
  },
  {
    "name": "MHP Jaisithok SHP",
    "amenity": "hospital",
    "longitude": 83.1841005,
    "latitude": 28.101818
  },
  {
    "name": "Eye Hospital Tamghas",
    "amenity": "hospital",
    "longitude": 83.24897,
    "latitude": 28.06868
  },
  {
    "name": "भगवति स्वास्थ्य चौकि",
    "amenity": "hospital",
    "longitude": 83.2218552,
    "latitude": 28.0408363
  },
  {
    "name": "MHP Amarpur SHP",
    "amenity": "hospital",
    "longitude": 83.164846,
    "latitude": 28.157663
  },
  {
    "name": "लामापोखरा सामुदायिक स्वास्थ इकाई",
    "amenity": "hospital",
    "longitude": 83.1716906,
    "latitude": 28.0500984
  },
  {
    "name": "आधारभुत स्वास्थ सेवा केन्द्र",
    "amenity": "hospital",
    "longitude": 83.1750863,
    "latitude": 28.0614939
  },
  {
    "name": "गोखुङ्गा स्वास्थ्य चौकी मालारानी-९",
    "amenity": "hospital",
    "longitude": 83.015,
    "latitude": 28.08786
  },
  {
    "name": "Red Cross Society Tamghas;Sports Hall",
    "amenity": "hospital",
    "longitude": 83.24644,
    "latitude": 28.06697
  },
  {
    "name": "MHP Marbhung SHP",
    "amenity": "hospital",
    "longitude": 83.12784,
    "latitude": 28.17655
  },
  {
    "name": "MHP Myalpokhari SHP",
    "amenity": "hospital",
    "longitude": 83.0648,
    "latitude": 28.17043
  },
  {
    "name": "MHP Purkhot Daha HP",
    "amenity": "hospital",
    "longitude": 83.07469,
    "latitude": 28.14339
  },
  {
    "name": "MHP Malagiri SHP",
    "amenity": "hospital",
    "longitude": 83.037786,
    "latitude": 28.169185
  },
  {
    "name": "MHP Bajkateri SHP",
    "amenity": "hospital",
    "longitude": 83.068537,
    "latitude": 28.197827
  },
  {
    "name": "साम्नेगाउ सामुदायिक स्वास्थ इकाइ",
    "amenity": "hospital",
    "longitude": 82.9812012,
    "latitude": 28.0538807
  },
  {
    "name": "फुलपाति हंसपुर आधारभूत स्वास्थ्य सेवा केन्द्र",
    "amenity": "hospital",
    "longitude": 83.0477,
    "latitude": 28.07809
  },
  {
    "name": "Ayurvedic Hospital",
    "amenity": "hospital",
    "longitude": 83.7496322,
    "latitude": 28.2444519
  },
  {
    "name": "Dhaulagiri Ayurveda Aausadaliya",
    "amenity": "hospital",
    "longitude": 83.6009711,
    "latitude": 28.2629683
  },
  {
    "name": "Health Post",
    "amenity": "hospital",
    "longitude": 83.7175195,
    "latitude": 28.2782867
  },
  {
    "name": "Childcare centre, Ghandruk",
    "amenity": "hospital",
    "longitude": 83.8097495,
    "latitude": 28.3755397
  },
  {
    "name": "Nilgiri Hospital",
    "amenity": "hospital",
    "longitude": 83.5972687,
    "latitude": 28.2644362
  },
  {
    "name": "MHP Hadahade SHP",
    "amenity": "hospital",
    "longitude": 83.1082,
    "latitude": 28.1017
  },
  {
    "name": "MHP Pipaldhara HP",
    "amenity": "hospital",
    "longitude": 83.13937,
    "latitude": 28.08575
  },
  {
    "name": "खनदह स्वास्थ चौकी",
    "amenity": "hospital",
    "longitude": 83.12608,
    "latitude": 28.05882
  },
  {
    "name": "MHP Hastichaur SHP",
    "amenity": "hospital",
    "longitude": 83.23692,
    "latitude": 28.13327
  },
  {
    "name": "MHP Ismarajasthal HP",
    "amenity": "hospital",
    "longitude": 83.19566,
    "latitude": 28.17623
  },
  {
    "name": "MHP Paudhi SHP",
    "amenity": "hospital",
    "longitude": 83.22993,
    "latitude": 28.21747
  },
  {
    "name": "MHP Wagla SHP",
    "amenity": "hospital",
    "longitude": 83.11575,
    "latitude": 28.15858
  },
  {
    "name": "मानपुर स्वास्थ्य चौकी",
    "amenity": "hospital",
    "longitude": 82.3396821,
    "latitude": 28.0975231
  },
  {
    "name": "रौनियार अस्पताल र दन्त चिकित्सा क्लिनिक",
    "amenity": "hospital",
    "longitude": 82.2972061,
    "latitude": 28.1294604
  },
  {
    "name": "श्रीगाउँ सामुदायिक स्वास्थ्य सेवा इकाइ",
    "amenity": "hospital",
    "longitude": 82.2006297,
    "latitude": 28.1212525
  },
  {
    "name": "Rapti sub-Regional Hospital",
    "amenity": "hospital",
    "longitude": 82.4919422,
    "latitude": 28.0376393
  },
  {
    "name": "Corona Specialized Hospital (Temporary)",
    "amenity": "hospital",
    "longitude": 82.3606053,
    "latitude": 28.0935857
  },
  {
    "name": "Tulsipur City Hospital",
    "amenity": "hospital",
    "longitude": 82.2975929,
    "latitude": 28.1307475
  },
  {
    "name": "Kalika Community Hospital",
    "amenity": "hospital",
    "longitude": 83.8056949,
    "latitude": 28.0617137
  },
  {
    "name": "ART Center",
    "amenity": "hospital",
    "longitude": 83.87385,
    "latitude": 28.1050369
  },
  {
    "name": "STI Center",
    "amenity": "hospital",
    "longitude": 83.8739064,
    "latitude": 28.1052569
  },
  {
    "name": "HTC Centre",
    "amenity": "hospital",
    "longitude": 83.8738554,
    "latitude": 28.1052995
  },
  {
    "name": "Aashirbaad Medical",
    "amenity": "hospital",
    "longitude": 83.9840557,
    "latitude": 28.2101557
  },
  {
    "name": "हापुर स्वास्थ चौकी",
    "amenity": "hospital",
    "longitude": 82.4458829,
    "latitude": 28.0919389
  },
  {
    "name": "बिजौरी स्वास्थ्य चौकी",
    "amenity": "hospital",
    "longitude": 82.3697229,
    "latitude": 28.1416241
  },
  {
    "name": "Machhapuchre Polyclinic",
    "amenity": "hospital",
    "longitude": 84.0567302,
    "latitude": 28.16325
  },
  {
    "name": "राप्ती आँखा अस्पताल",
    "amenity": "hospital",
    "longitude": 82.3162379,
    "latitude": 28.1646188
  },
  {
    "name": "राणागाउँ स्वास्थ्य चौकी",
    "amenity": "hospital",
    "longitude": 82.3022184,
    "latitude": 28.1454638
  },
  {
    "name": "चिनारी अस्पताल",
    "amenity": "hospital",
    "longitude": 82.2980869,
    "latitude": 28.1317696
  },
  {
    "name": "Dhaulagiri Eye Hospital",
    "amenity": "hospital",
    "longitude": 83.6007304,
    "latitude": 28.2786777
  },
  {
    "name": "Lekphant Health Post",
    "amenity": "hospital",
    "longitude": 83.5973983,
    "latitude": 28.3496119
  },
  {
    "name": "Government Hospital",
    "amenity": "hospital",
    "longitude": 82.7297233,
    "latitude": 28.2462841
  },
  {
    "name": "Baglungpani Health Post",
    "amenity": "hospital",
    "longitude": 84.3157881,
    "latitude": 28.2457314
  },
  {
    "name": "Healthpost",
    "amenity": "hospital",
    "longitude": 85.0862239,
    "latitude": 28.1758251
  },
  {
    "name": "Amppipal",
    "amenity": "hospital",
    "longitude": 84.5296803,
    "latitude": 28.0692468
  },
  {
    "name": "शिवगङ्गा आँखा उपचार केन्द्र",
    "amenity": "hospital",
    "longitude": 81.3419724,
    "latitude": 28.202486
  },
  {
    "name": "सामुदायिक स्वास्थ्य इकाई, गंगटे",
    "amenity": "hospital",
    "longitude": 81.9493691,
    "latitude": 28.2627601
  },
  {
    "name": "स्वास्थ्य चौकी, बिसौनी डाँडा",
    "amenity": "hospital",
    "longitude": 82.0998064,
    "latitude": 28.2344759
  },
  {
    "name": "पुरनधारा अस्पताल",
    "amenity": "hospital",
    "longitude": 82.1181384,
    "latitude": 28.2097276
  },
  {
    "name": "कपुरकोट स्वास्थ्य चौकी",
    "amenity": "hospital",
    "longitude": 82.3502329,
    "latitude": 28.2316518
  },
  {
    "name": "पवन नगर स्वास्थ्य चौकी",
    "amenity": "hospital",
    "longitude": 82.2534069,
    "latitude": 28.1526344
  },
  {
    "name": "Health post",
    "amenity": "hospital",
    "longitude": 83.8292465,
    "latitude": 28.3051544
  },
  {
    "name": "Salyan Health Post",
    "amenity": "hospital",
    "longitude": 83.7842598,
    "latitude": 28.2825163
  },
  {
    "name": "Siwikot health post",
    "amenity": "hospital",
    "longitude": 82.1516465,
    "latitude": 28.5851803
  },
  {
    "name": "Gurudase health unit",
    "amenity": "hospital",
    "longitude": 82.1798724,
    "latitude": 28.5113274
  },
  {
    "name": "Badagaun health post",
    "amenity": "hospital",
    "longitude": 82.2410714,
    "latitude": 28.5539584
  },
  {
    "name": "Marmaparikanda health post",
    "amenity": "hospital",
    "longitude": 82.197917,
    "latitude": 28.5401124
  },
  {
    "name": "Siyala Urban Health Post",
    "amenity": "hospital",
    "longitude": 81.530363,
    "latitude": 28.865964
  },
  {
    "name": "Kanda Health Post",
    "amenity": "hospital",
    "longitude": 81.3681163,
    "latitude": 29.6977788
  },
  {
    "name": "Balaudi Health Post",
    "amenity": "hospital",
    "longitude": 81.2795457,
    "latitude": 29.7676254
  },
  {
    "name": "Dhuli Samudaik Swasthya Kendra",
    "amenity": "hospital",
    "longitude": 81.2797683,
    "latitude": 29.7741211
  },
  {
    "name": "Swastha Chauki, Ganjauwaha",
    "amenity": "hospital",
    "longitude": 80.9214225,
    "latitude": 28.5474018
  },
  {
    "name": "Gadimai Hospital P.V.T 6 Lalbandhi MP",
    "amenity": "hospital",
    "longitude": 85.6375885,
    "latitude": 27.0516739
  },
  {
    "name": "Suryodaya Life Care P.V.T 6 Lalbandhi MP",
    "amenity": "hospital",
    "longitude": 85.6367196,
    "latitude": 27.0525191
  },
  {
    "name": "Gaubal Maitri Hospital 7 Lalbandhi MP",
    "amenity": "hospital",
    "longitude": 85.6299373,
    "latitude": 27.0544159
  },
  {
    "name": "Bhamchaur Health Post",
    "amenity": "hospital",
    "longitude": 80.9317517,
    "latitude": 29.5447738
  },
  {
    "name": "Hatkholi Sahari health post",
    "amenity": "hospital",
    "longitude": 80.6636433,
    "latitude": 28.86698
  },
  {
    "name": "Khamaura Sahari Swasthe Chauki",
    "amenity": "hospital",
    "longitude": 80.5298937,
    "latitude": 28.8575789
  },
  {
    "name": "Dogadi hospital",
    "amenity": "hospital",
    "longitude": 81.2846314,
    "latitude": 29.4220923
  },
  {
    "name": "Bayalpata Hospital",
    "amenity": "hospital",
    "longitude": 81.2226321,
    "latitude": 29.2196253
  },
  {
    "name": "Bayalgada Hospital,Achham",
    "amenity": "hospital",
    "longitude": 81.2223329,
    "latitude": 29.2189942
  },
  {
    "name": "कुनाथरी स्वास्थचौकि, बड्डिचौर बजार",
    "amenity": "hospital",
    "longitude": 81.5056534,
    "latitude": 28.7148075
  },
  {
    "name": "Outreach Clinic",
    "amenity": "hospital",
    "longitude": 80.9303382,
    "latitude": 29.4959989
  },
  {
    "name": "रायल प्राथमिक स्वास्थ्य केन्द्र",
    "amenity": "hospital",
    "longitude": 80.9101107,
    "latitude": 29.4527025
  },
  {
    "name": "Peoples Hospital",
    "amenity": "hospital",
    "longitude": 81.1498731,
    "latitude": 28.6258648
  },
  {
    "name": "Partappur Health Post",
    "amenity": "hospital",
    "longitude": 81.0728154,
    "latitude": 28.6108239
  },
  {
    "name": "Narmada Nagar Health Centre",
    "amenity": "hospital",
    "longitude": 81.1234474,
    "latitude": 28.6079744
  },
  {
    "name": "Lamki Chuha Hospital",
    "amenity": "hospital",
    "longitude": 81.1286778,
    "latitude": 28.6380752
  },
  {
    "name": "Lal Ratna Hospital",
    "amenity": "hospital",
    "longitude": 81.1533416,
    "latitude": 28.6278151
  },
  {
    "name": "Chuha Health Post",
    "amenity": "hospital",
    "longitude": 81.0708032,
    "latitude": 28.6510823
  },
  {
    "name": "Bagaura Health Post",
    "amenity": "hospital",
    "longitude": 81.5801451,
    "latitude": 28.8562195
  },
  {
    "name": "Nepa Health Post",
    "amenity": "hospital",
    "longitude": 81.5671627,
    "latitude": 28.8665019
  },
  {
    "name": "Mid Western Regional Hospital",
    "amenity": "hospital",
    "longitude": 81.6005701,
    "latitude": 28.6062923
  },
  {
    "name": "Healthpost Gothikada",
    "amenity": "hospital",
    "longitude": 81.6067478,
    "latitude": 28.6412264
  },
  {
    "name": "Dharapani Healthpost",
    "amenity": "hospital",
    "longitude": 81.5825042,
    "latitude": 28.6121056
  },
  {
    "name": "COVID 19 ISOLATION CENTER DHANGADHI",
    "amenity": "hospital",
    "longitude": 80.587572,
    "latitude": 28.7040953
  },
  {
    "name": "Prashuti Griha",
    "amenity": "hospital",
    "longitude": 81.2840799,
    "latitude": 28.6448152
  },
  {
    "name": "Bebistithngar Health Post",
    "amenity": "hospital",
    "longitude": 81.1518406,
    "latitude": 28.6007383
  },
  {
    "name": "Rimi health post",
    "amenity": "hospital",
    "longitude": 82.5606591,
    "latitude": 29.1288362
  },
  {
    "name": "Kaigaun health post",
    "amenity": "hospital",
    "longitude": 82.5798812,
    "latitude": 29.1201345
  },
  {
    "name": "Sun health post",
    "amenity": "hospital",
    "longitude": 82.7852534,
    "latitude": 29.0086511
  },
  {
    "name": "Tripurakot health post",
    "amenity": "hospital",
    "longitude": 82.7941744,
    "latitude": 29.0202037
  },
  {
    "name": "Chun health post",
    "amenity": "hospital",
    "longitude": 82.7628207,
    "latitude": 29.0281287
  },
  {
    "name": "Jufal health post",
    "amenity": "hospital",
    "longitude": 82.8225448,
    "latitude": 28.9827594
  },
  {
    "name": "Pahad Prasuti Centre, Bhutingra",
    "amenity": "hospital",
    "longitude": 82.7412853,
    "latitude": 29.0547008
  },
  {
    "name": "Liku health post",
    "amenity": "hospital",
    "longitude": 82.7517445,
    "latitude": 29.0422264
  },
  {
    "name": "Mu Health post",
    "amenity": "hospital",
    "longitude": 82.7228263,
    "latitude": 29.052777
  },
  {
    "name": "Thargaun hospital",
    "amenity": "hospital",
    "longitude": 82.8123028,
    "latitude": 28.9102931
  },
  {
    "name": "Thargaun health post",
    "amenity": "hospital",
    "longitude": 82.8122739,
    "latitude": 28.9093169
  },
  {
    "name": "Maajhfal health post",
    "amenity": "hospital",
    "longitude": 82.810851,
    "latitude": 28.9388631
  },
  {
    "name": "Hamro Aspatal Pvt.Ltd",
    "amenity": "hospital",
    "longitude": 87.2769783,
    "latitude": 26.4842437
  },
  {
    "name": "Ghusra Healthpost",
    "amenity": "hospital",
    "longitude": 81.6233404,
    "latitude": 28.557846
  },
  {
    "name": "Health Post",
    "amenity": "hospital",
    "longitude": 81.6199194,
    "latitude": 29.2198697
  },
  {
    "name": "Nepalgunj Medical college",
    "amenity": "hospital",
    "longitude": 81.6172459,
    "latitude": 28.0595708
  },
  {
    "name": "भिजन आखा अस्पताल",
    "amenity": "hospital",
    "longitude": 81.6181085,
    "latitude": 28.0591148
  },
  {
    "name": "Deuti Hospital",
    "amenity": "hospital",
    "longitude": 81.6167769,
    "latitude": 28.5965222
  },
  {
    "name": "Health Post",
    "amenity": "hospital",
    "longitude": 81.5920177,
    "latitude": 29.2909629
  },
  {
    "name": "Rolpa District Hospital",
    "amenity": "hospital",
    "longitude": 82.615648,
    "latitude": 28.3224017
  },
  {
    "name": "Ward 1 Deutichour Sub-Health post",
    "amenity": "hospital",
    "longitude": 81.5820179,
    "latitude": 28.8195817
  },
  {
    "name": "Rijjupokhari Health Post",
    "amenity": "hospital",
    "longitude": 81.623019,
    "latitude": 28.840765
  },
  {
    "name": "Naule Katuwa Health Post",
    "amenity": "hospital",
    "longitude": 81.5800677,
    "latitude": 28.8293653
  },
  {
    "name": "Hospital Building",
    "amenity": "hospital",
    "longitude": 85.9528582,
    "latitude": 26.8153163
  },
  {
    "name": "Mithila Hospital",
    "amenity": "hospital",
    "longitude": 85.9247616,
    "latitude": 26.7342992
  },
  {
    "name": "Janakpur City Hospital",
    "amenity": "hospital",
    "longitude": 85.934216,
    "latitude": 26.7332311
  },
  {
    "name": "Badalamji Health Post",
    "amenity": "hospital",
    "longitude": 81.62535,
    "latitude": 28.89591
  },
  {
    "name": "Paduka Health Post",
    "amenity": "hospital",
    "longitude": 81.588983,
    "latitude": 28.887858
  },
  {
    "name": "Swastika Healthcare Hospital Pvt. Ltd.",
    "amenity": "hospital",
    "longitude": 85.9154121,
    "latitude": 26.7253657
  },
  {
    "name": "Shree Janaki Eye Hospital",
    "amenity": "hospital",
    "longitude": 85.9172595,
    "latitude": 26.7381705
  },
  {
    "name": "Rajdhani Hospital",
    "amenity": "hospital",
    "longitude": 85.9179042,
    "latitude": 26.7351283
  },
  {
    "name": "Naina Hospital Private Limited",
    "amenity": "hospital",
    "longitude": 85.9187907,
    "latitude": 26.7383714
  },
  {
    "name": "Mihilal International Hospital",
    "amenity": "hospital",
    "longitude": 85.920803,
    "latitude": 26.737265
  },
  {
    "name": "Janakpur Surakshya Hospital Pvt. Ltd.",
    "amenity": "hospital",
    "longitude": 85.9177332,
    "latitude": 26.7342006
  },
  {
    "name": "Janakpur Shriram Hospital Private Limited",
    "amenity": "hospital",
    "longitude": 85.9195343,
    "latitude": 26.7388436
  },
  {
    "name": "Janakpur Madhesh Hospital Private Limited",
    "amenity": "hospital",
    "longitude": 85.9192165,
    "latitude": 26.743116
  },
  {
    "name": "Janakpur Golden Hospital",
    "amenity": "hospital",
    "longitude": 85.920971,
    "latitude": 26.7402132
  },
  {
    "name": "Janakpur Children Hospital",
    "amenity": "hospital",
    "longitude": 85.9198723,
    "latitude": 26.7244922
  },
  {
    "name": "Janak Memorial Hospital",
    "amenity": "hospital",
    "longitude": 85.9190699,
    "latitude": 26.7378295
  },
  {
    "name": "Dainik International Hospital Private Limited",
    "amenity": "hospital",
    "longitude": 85.9157936,
    "latitude": 26.7278228
  },
  {
    "name": "Chandrakala Hospital and Research Center Pv. Ltd.",
    "amenity": "hospital",
    "longitude": 85.9194237,
    "latitude": 26.7246791
  },
  {
    "name": "CFC Genaral Hospital",
    "amenity": "hospital",
    "longitude": 85.9089999,
    "latitude": 26.7358472
  },
  {
    "name": "Baidehi Hospital Private Limited",
    "amenity": "hospital",
    "longitude": 85.9220506,
    "latitude": 26.7359233
  },
  {
    "name": "Kavya Hospital",
    "amenity": "hospital",
    "longitude": 85.92295,
    "latitude": 26.739792
  },
  {
    "name": "Bam Hospital",
    "amenity": "hospital",
    "longitude": 82.1459733,
    "latitude": 29.5983267
  },
  {
    "name": "Community Health Unit",
    "amenity": "hospital",
    "longitude": 82.0512265,
    "latitude": 29.3053505
  },
  {
    "name": "District Health Post",
    "amenity": "hospital",
    "longitude": 82.0224622,
    "latitude": 29.314531
  },
  {
    "name": "Pharmacy",
    "amenity": "hospital",
    "longitude": 82.1575651,
    "latitude": 29.5107878
  },
  {
    "name": "Rowa Birth Centre",
    "amenity": "hospital",
    "longitude": 82.1919782,
    "latitude": 29.5265462
  },
  {
    "name": "Hospital",
    "amenity": "hospital",
    "longitude": 82.1473734,
    "latitude": 29.4981277
  },
  {
    "name": "DHO Mugu",
    "amenity": "hospital",
    "longitude": 82.156945,
    "latitude": 29.5512067
  },
  {
    "name": "Thini Hospital",
    "amenity": "hospital",
    "longitude": 82.1527889,
    "latitude": 29.5504606
  },
  {
    "name": "Jana Swasthya Sewa Kendra",
    "amenity": "hospital",
    "longitude": 81.8067148,
    "latitude": 29.3521433
  },
  {
    "name": "Tatopani Health Post",
    "amenity": "hospital",
    "longitude": 82.0495183,
    "latitude": 29.2329467
  },
  {
    "name": "Community health unit",
    "amenity": "hospital",
    "longitude": 82.0134438,
    "latitude": 29.2524716
  },
  {
    "name": "ANB Hospital",
    "amenity": "hospital",
    "longitude": 81.7514383,
    "latitude": 29.3025765
  },
  {
    "name": "Health Post",
    "amenity": "hospital",
    "longitude": 81.7210333,
    "latitude": 29.2944753
  },
  {
    "name": "Health Post",
    "amenity": "hospital",
    "longitude": 81.7244947,
    "latitude": 29.3181944
  },
  {
    "name": "Basic Health Post",
    "amenity": "hospital",
    "longitude": 81.6808917,
    "latitude": 29.2599967
  },
  {
    "name": "Bhijer health post",
    "amenity": "hospital",
    "longitude": 82.9417983,
    "latitude": 29.4637407
  },
  {
    "name": "Sankhar Hospital",
    "amenity": "hospital",
    "longitude": 87.9890032,
    "latitude": 26.6860982
  },
  {
    "name": "MEDICAL HOUSE",
    "amenity": "hospital",
    "longitude": 87.9910051,
    "latitude": 26.6850027
  },
  {
    "name": "Ayurbedic Hospital",
    "amenity": "hospital",
    "longitude": 88.0492183,
    "latitude": 26.7190504
  },
  {
    "name": "Dailekh District Hospital",
    "amenity": "hospital",
    "longitude": 81.710261,
    "latitude": 28.8271888
  },
  {
    "name": "Jumlakot Health Post",
    "amenity": "hospital",
    "longitude": 81.9743573,
    "latitude": 29.194757
  },
  {
    "name": "Municipality Health Post",
    "amenity": "hospital",
    "longitude": 81.9825581,
    "latitude": 29.3291382
  },
  {
    "name": "Ilaka Health Post",
    "amenity": "hospital",
    "longitude": 81.9845162,
    "latitude": 29.3269279
  },
  {
    "name": "Primary Health Care Center (Godak)",
    "amenity": "hospital",
    "longitude": 87.9691129,
    "latitude": 26.8766817
  },
  {
    "name": "inaruwa hospital",
    "amenity": "hospital",
    "longitude": 87.1508363,
    "latitude": 26.6005988
  },
  {
    "name": "Tripti Memorial ENT Hospital",
    "amenity": "hospital",
    "longitude": 86.7649759,
    "latitude": 26.4642425
  },
  {
    "name": "Lifeline Hospital",
    "amenity": "hospital",
    "longitude": 87.6985104,
    "latitude": 26.6671744
  },
  {
    "name": "Advance Multispeciality Hospital",
    "amenity": "hospital",
    "longitude": 87.7038246,
    "latitude": 26.6676285
  },
  {
    "name": "sachhi nursing home",
    "amenity": "hospital",
    "longitude": 86.7434096,
    "latitude": 26.5382787
  },
  {
    "name": "Bahrabise SHP",
    "amenity": "hospital",
    "longitude": 85.9092499,
    "latitude": 27.7964923
  },
  {
    "name": "Sunshine Medical Hospital",
    "amenity": "hospital",
    "longitude": 81.794897,
    "latitude": 29.9786606
  },
  {
    "name": "Malarani Health Post",
    "amenity": "hospital",
    "longitude": 81.9252552,
    "latitude": 28.3659737
  },
  {
    "name": "Ramrikada Basic Health Care Center",
    "amenity": "hospital",
    "longitude": 81.9257226,
    "latitude": 28.3455678
  },
  {
    "name": "Pokharipata Basic Health Care Center",
    "amenity": "hospital",
    "longitude": 81.8795942,
    "latitude": 28.3792946
  },
  {
    "name": "अस्थायी कोभिड अस्पताल",
    "amenity": "hospital",
    "longitude": 81.6819143,
    "latitude": 28.2021347
  },
  {
    "name": "सराेजनि अस्पताल",
    "amenity": "hospital",
    "longitude": 81.6628835,
    "latitude": 28.0971988
  },
  {
    "name": "MILITARY HOSPITAL NEPALGUNJ",
    "amenity": "hospital",
    "longitude": 81.6665533,
    "latitude": 28.0950263
  },
  {
    "name": "Lamabagar birthing center",
    "amenity": "hospital",
    "longitude": 82.07338,
    "latitude": 29.1542883
  },
  {
    "name": "Panditkanla Basic Health Center",
    "amenity": "hospital",
    "longitude": 81.847011,
    "latitude": 28.4972463
  },
  {
    "name": "Gumi Health Post",
    "amenity": "hospital",
    "longitude": 81.8268405,
    "latitude": 28.4619436
  },
  {
    "name": "Pipaltaukura Urban Health Center",
    "amenity": "hospital",
    "longitude": 81.8598404,
    "latitude": 28.4758374
  },
  {
    "name": "Dahachaur Health Post",
    "amenity": "hospital",
    "longitude": 81.849697,
    "latitude": 28.446899
  },
  {
    "name": "SaniLkeh HealthPost",
    "amenity": "hospital",
    "longitude": 81.7233556,
    "latitude": 28.6339195
  },
  {
    "name": "Gulmi District Hospital",
    "amenity": "hospital",
    "longitude": 83.2482724,
    "latitude": 28.0682616
  },
  {
    "name": "A.R Hospital",
    "amenity": "hospital",
    "longitude": 81.6277995,
    "latitude": 28.0651409
  },
  {
    "name": "कान्ति आराेग्य अस्पताल",
    "amenity": "hospital",
    "longitude": 81.6248968,
    "latitude": 28.0653289
  },
  {
    "name": "किमडाडा स्वास्थ चौकी",
    "amenity": "hospital",
    "longitude": 83.0777206,
    "latitude": 27.9945717
  },
  {
    "name": "नागरिक आरोग्य सेवा केन्द्र",
    "amenity": "hospital",
    "longitude": 83.0768585,
    "latitude": 27.973381
  },
  {
    "name": "नुवाकोट स्वास्थ्य चौकी",
    "amenity": "hospital",
    "longitude": 83.0764236,
    "latitude": 27.9721775
  },
  {
    "name": "आधारभुत स्वास्थ्य केन्द्",
    "amenity": "hospital",
    "longitude": 83.0619583,
    "latitude": 27.977066
  },
  {
    "name": "बागि स्वास्थ्य चैाकि",
    "amenity": "hospital",
    "longitude": 83.09048,
    "latitude": 28.04107
  },
  {
    "name": "आधारभुत स्वास्थ्य सेवा केन्द्र बामरुक",
    "amenity": "hospital",
    "longitude": 83.05204,
    "latitude": 28.05987
  },
  {
    "name": "खिल्जि स्वास्थ्य चैाकि",
    "amenity": "hospital",
    "longitude": 83.020765,
    "latitude": 27.9862527
  },
  {
    "name": "धन्चौर स्वास्थ्य चाैकि",
    "amenity": "hospital",
    "longitude": 83.0645752,
    "latitude": 27.9250031
  },
  {
    "name": "सामुदायिक स्वास्थ्य इकाई भुमिकास्थान-०३थारपाईला",
    "amenity": "hospital",
    "longitude": 83.0599899,
    "latitude": 28.0232162
  },
  {
    "name": "आधारभुत स्वास्थ्य सेवा केन्द्र भुमिकास्थान-३ सिख्र",
    "amenity": "hospital",
    "longitude": 83.0375214,
    "latitude": 28.0240383
  },
  {
    "name": "ढाकावाङ्ग स्वास्थ्य चौकी भुमेकास्थान-१",
    "amenity": "hospital",
    "longitude": 82.9944305,
    "latitude": 28.0372257
  },
  {
    "name": "धारापानी स्वास्थ्य चौकि भुमिकास्थान ०४",
    "amenity": "hospital",
    "longitude": 83.0428238,
    "latitude": 28.0162125
  },
  {
    "name": "आधारभुत स्वास्थ्य केन्द्र ,माभिगाँउ भु.न.पा.२",
    "amenity": "hospital",
    "longitude": 83.0068436,
    "latitude": 28.0410385
  },
  {
    "name": "सामुदायिक स्वास्थ्य इकाइ भु न पा 9 डेबा",
    "amenity": "hospital",
    "longitude": 83.0797096,
    "latitude": 27.9321465
  },
  {
    "name": "देउराली आधारभुत स्वास्थ केन्द्र",
    "amenity": "hospital",
    "longitude": 83.0244827,
    "latitude": 27.8975658
  },
  {
    "name": "प्राथमिक स्वास्थ्य केन्द्र शिनपा-३ठाडा",
    "amenity": "hospital",
    "longitude": 83.0930688,
    "latitude": 27.8608989
  },
  {
    "name": "नागरिक आरोग्य सेवा केन्द्र",
    "amenity": "hospital",
    "longitude": 83.0804138,
    "latitude": 27.8584976
  },
  {
    "name": "अर्घा स्वास्थ्य चैाकि",
    "amenity": "hospital",
    "longitude": 83.0982056,
    "latitude": 28.0215893
  },
  {
    "name": "नेपालगन्ज युनाइटेड अस्पताल",
    "amenity": "hospital",
    "longitude": 81.6191519,
    "latitude": 28.0598948
  },
  {
    "name": "नेपालगन्ज उपनगरपालिका शहरि स्वास्थ केन्द्र",
    "amenity": "hospital",
    "longitude": 81.616184,
    "latitude": 28.042929
  },
  {
    "name": "Aurvedic Hospital",
    "amenity": "hospital",
    "longitude": 81.6066116,
    "latitude": 28.0315666
  },
  {
    "name": "Maidan Health post",
    "amenity": "hospital",
    "longitude": 83.23891,
    "latitude": 27.90137
  },
  {
    "name": "सामुदायिक स्वास्थ ईकाइ भर्तापुर",
    "amenity": "hospital",
    "longitude": 83.21676,
    "latitude": 27.84308
  },
  {
    "name": "Pokharathok Helthpost",
    "amenity": "hospital",
    "longitude": 83.27821,
    "latitude": 27.89105
  },
  {
    "name": "पाली स्वास्थ्य चौकी पाणिनी 8",
    "amenity": "hospital",
    "longitude": 83.22826,
    "latitude": 27.92734
  },
  {
    "name": "आधारभुत स्वास्थ सेवा केन्द्र दुन्दुरुक",
    "amenity": "hospital",
    "longitude": 83.2329178,
    "latitude": 27.9529419
  },
  {
    "name": "प्राथमिक स्वास्थ केन्द्र बल्कोट",
    "amenity": "hospital",
    "longitude": 83.2411804,
    "latitude": 27.96702
  },
  {
    "name": "केरुङ्गा स्वास्थ्य चौकी",
    "amenity": "hospital",
    "longitude": 83.2236099,
    "latitude": 27.9867649
  },
  {
    "name": "चिदिका स्वास्थ्य चौकी छ्त्रदेब 1 चिदिका",
    "amenity": "hospital",
    "longitude": 83.2686768,
    "latitude": 27.9578495
  },
  {
    "name": "Nepalgunj Eye Hospital",
    "amenity": "hospital",
    "longitude": 81.6160057,
    "latitude": 28.0521943
  },
  {
    "name": "Rupakot Hospital",
    "amenity": "hospital",
    "longitude": 84.1507778,
    "latitude": 28.1528387
  },
  {
    "name": "Lion Eye Hospital",
    "amenity": "hospital",
    "longitude": 84.6269963,
    "latitude": 27.9963472
  },
  {
    "name": "Gorkha District Hospital",
    "amenity": "hospital",
    "longitude": 84.6279988,
    "latitude": 27.9949532
  },
  {
    "name": "Manaslu Hospital",
    "amenity": "hospital",
    "longitude": 84.6241748,
    "latitude": 27.9975487
  },
  {
    "name": "Bungkot Hospital",
    "amenity": "hospital",
    "longitude": 84.6748032,
    "latitude": 27.971878
  },
  {
    "name": "Pujari Dada Khop Kendra",
    "amenity": "hospital",
    "longitude": 84.9336344,
    "latitude": 27.9695425
  },
  {
    "name": "Katunje Health Post",
    "amenity": "hospital",
    "longitude": 84.9300161,
    "latitude": 27.9775633
  },
  {
    "name": "Bani hospital",
    "amenity": "hospital",
    "longitude": 80.4172792,
    "latitude": 28.8637623
  },
  {
    "name": "Nimesh aspatal pvt Ltd",
    "amenity": "hospital",
    "longitude": 80.4885416,
    "latitude": 28.8350058
  },
  {
    "name": "jogbuda hospital",
    "amenity": "hospital",
    "longitude": 80.3551561,
    "latitude": 29.1281158
  },
  {
    "name": "Shree Chhimkeswori General Hospital",
    "amenity": "hospital",
    "longitude": 84.5371387,
    "latitude": 27.901411
  },
  {
    "name": "Health Post",
    "amenity": "hospital",
    "longitude": 84.5308581,
    "latitude": 27.9095694
  },
  {
    "name": "Sanjivani Hospital",
    "amenity": "hospital",
    "longitude": 85.1460541,
    "latitude": 27.8992606
  },
  {
    "name": "Chandrawati Medical",
    "amenity": "hospital",
    "longitude": 84.3713274,
    "latitude": 28.0705189
  },
  {
    "name": "Gorkha Memorial Hospital pvt.ltd",
    "amenity": "hospital",
    "longitude": 84.5694732,
    "latitude": 27.9940845
  },
  {
    "name": "Urban Health Post, Bheemdatta 9, Kanchanpur",
    "amenity": "hospital",
    "longitude": 80.1373287,
    "latitude": 29.065317
  },
  {
    "name": "जिल्ला अस्पताल बैतडी",
    "amenity": "hospital",
    "longitude": 80.4183423,
    "latitude": 29.5598276
  },
  {
    "name": "ठुलापोखरा स्वास्थ चौकी",
    "amenity": "hospital",
    "longitude": 83.1968307,
    "latitude": 28.0083904
  },
  {
    "name": "छत्रगन्ज",
    "amenity": "hospital",
    "longitude": 83.2124252,
    "latitude": 28.0172234
  },
  {
    "name": "मथुरा आधारभुत स्वस्थ्य ईकाइ स.न.पा.-५ अर्घाखाँची",
    "amenity": "hospital",
    "longitude": 83.1898575,
    "latitude": 27.9685974
  },
  {
    "name": "वाङ्गला स्वास्थ्य चौकि",
    "amenity": "hospital",
    "longitude": 83.1709671,
    "latitude": 27.9788036
  },
  {
    "name": "बरहनेटा सहरी स्वास्थ्य केन्द्र सनपा-३ बरहनेटा",
    "amenity": "hospital",
    "longitude": 83.1437531,
    "latitude": 27.9701977
  },
  {
    "name": "ॐ पोलिक्लिनिक",
    "amenity": "hospital",
    "longitude": 83.1258469,
    "latitude": 27.9733925
  },
  {
    "name": "अर्घाखाँची पोलिक्लिनिक",
    "amenity": "hospital",
    "longitude": 83.126582,
    "latitude": 27.9755155
  },
  {
    "name": "झडि आधारभुत स्वास्थ केन्द्र",
    "amenity": "hospital",
    "longitude": 83.1539154,
    "latitude": 27.9970818
  },
  {
    "name": "डिभर्ना आयुर्वेद औषधालाय",
    "amenity": "hospital",
    "longitude": 83.1526871,
    "latitude": 27.9980583
  },
  {
    "name": "कुर आधारभुत स्वास्थ्य केन्द्र",
    "amenity": "hospital",
    "longitude": 83.1088791,
    "latitude": 27.96978
  },
  {
    "name": "अर्घाखाँचि हस्पिटल प्रालि",
    "amenity": "hospital",
    "longitude": 83.1240768,
    "latitude": 27.977047
  },
  {
    "name": "छाया पोलिक्लिनिक",
    "amenity": "hospital",
    "longitude": 83.1240082,
    "latitude": 27.9722519
  },
  {
    "name": "ढिकुरा स्वाथ्यचौकी भु न पा 9",
    "amenity": "hospital",
    "longitude": 83.1086121,
    "latitude": 27.9448853
  },
  {
    "name": "डिभर्ना स्वास्थ चौकी",
    "amenity": "hospital",
    "longitude": 83.1472549,
    "latitude": 28.0110188
  },
  {
    "name": "जिल्ला अस्पताल अर्घाखाँची",
    "amenity": "hospital",
    "longitude": 83.1264877,
    "latitude": 27.9649372
  },
  {
    "name": "na",
    "amenity": "hospital",
    "longitude": 83.1540527,
    "latitude": 27.9466381
  },
  {
    "name": "धरम्पानी आधारभुत स्वास्थ्य केन्द्र",
    "amenity": "hospital",
    "longitude": 83.1146774,
    "latitude": 28.0034428
  },
  {
    "name": "गाउँ घर क्लनिक",
    "amenity": "hospital",
    "longitude": 83.1282043,
    "latitude": 27.9466152
  },
  {
    "name": "रमेश मेडिकल हल",
    "amenity": "hospital",
    "longitude": 83.1264191,
    "latitude": 27.9744358
  },
  {
    "name": "अर्घातोस स्वास्थ्य चौकि",
    "amenity": "hospital",
    "longitude": 83.1950684,
    "latitude": 28.0354633
  },
  {
    "name": "मरेङ स्वास्थ्य चौकि",
    "amenity": "hospital",
    "longitude": 83.19129,
    "latitude": 28.05034
  },
  {
    "name": "नागरिक आरोग्य केन्द्र",
    "amenity": "hospital",
    "longitude": 83.1150159,
    "latitude": 28.0529215
  },
  {
    "name": "खन स्वास्थ चौकी",
    "amenity": "hospital",
    "longitude": 83.1241067,
    "latitude": 28.0398939
  },
  {
    "name": "sitapur sausty chauki",
    "amenity": "hospital",
    "longitude": 83.1203995,
    "latitude": 27.8748741
  },
  {
    "name": "Health Post/Birth Clinic",
    "amenity": "hospital",
    "longitude": 83.7732919,
    "latitude": 28.0379368
  },
  {
    "name": "जोहाङग प्राथमिक स्वास्थ्य केन्द्र",
    "amenity": "hospital",
    "longitude": 83.440891,
    "latitude": 28.0229892
  },
  {
    "name": "असुरकोट स्वास्थ्य चौकी",
    "amenity": "hospital",
    "longitude": 82.9936447,
    "latitude": 28.0021191
  },
  {
    "name": "लौरी सामुदायिक स्वास्थ्य केन्द्र शिनपा-०९लारी",
    "amenity": "hospital",
    "longitude": 82.9097061,
    "latitude": 27.8677025
  },
  {
    "name": "हर्रे",
    "amenity": "hospital",
    "longitude": 82.974968,
    "latitude": 27.8389874
  },
  {
    "name": "सिद्द्धारा स्वास्थ चौकी",
    "amenity": "hospital",
    "longitude": 82.9729004,
    "latitude": 27.8572636
  },
  {
    "name": "Lakshmanpur PHCC",
    "amenity": "hospital",
    "longitude": 81.8939441,
    "latitude": 27.8767267
  },
  {
    "name": "Majhakot Health Post",
    "amenity": "hospital",
    "longitude": 83.8348148,
    "latitude": 28.0072407
  },
  {
    "name": "Majhakot Health Post",
    "amenity": "hospital",
    "longitude": 83.8346957,
    "latitude": 28.007096
  },
  {
    "name": "प्रादेशिक आयुर्वेदिक अस्पताल, बिजौरी",
    "amenity": "hospital",
    "longitude": 82.3397478,
    "latitude": 28.1143897
  },
  {
    "name": "लक्ष्मीपुर स्वास्थ्य चौकी",
    "amenity": "hospital",
    "longitude": 82.3151922,
    "latitude": 28.0767857
  },
  {
    "name": "हेमन्तपुर नगर स्वास्थ्य केन्द्र",
    "amenity": "hospital",
    "longitude": 82.3497793,
    "latitude": 28.1068569
  },
  {
    "name": "हरिद्वार सहरी स्वास्थ्य केन्द्र",
    "amenity": "hospital",
    "longitude": 82.4895224,
    "latitude": 28.0219752
  },
  {
    "name": "सहरी स्वास्थ केन्द्र, फचकपुर",
    "amenity": "hospital",
    "longitude": 82.4551579,
    "latitude": 28.0101689
  },
  {
    "name": "मर्पा डाडा सहरी स्वास्थ्य केन्द्र",
    "amenity": "hospital",
    "longitude": 82.3856176,
    "latitude": 28.0379067
  },
  {
    "name": "सौडियार स्वस्थ चौकी",
    "amenity": "hospital",
    "longitude": 82.404153,
    "latitude": 28.0153689
  },
  {
    "name": "ह्रराबोट",
    "amenity": "hospital",
    "longitude": 83.29575,
    "latitude": 27.89691
  },
  {
    "name": "मध्य पश्चिचम क्षेत्रीय प्रहरी अस्पताल",
    "amenity": "hospital",
    "longitude": 81.6426962,
    "latitude": 28.0786975
  },
  {
    "name": "अपांग बाल अस्पताल",
    "amenity": "hospital",
    "longitude": 81.6419256,
    "latitude": 28.0804027
  },
  {
    "name": "उरहरी स्वास्थ्य चौकी",
    "amenity": "hospital",
    "longitude": 82.241284,
    "latitude": 28.0646067
  },
  {
    "name": "Phultekra Barracks Army Hospital",
    "amenity": "hospital",
    "longitude": 81.6460474,
    "latitude": 28.0599708
  },
  {
    "name": "तुलसीपुर सिटी अस्पताल",
    "amenity": "hospital",
    "longitude": 82.2955464,
    "latitude": 28.1322731
  },
  {
    "name": "हेमनगर स्वास्थ्य चौकी",
    "amenity": "hospital",
    "longitude": 82.2746828,
    "latitude": 28.067067
  },
  {
    "name": "Eye hospital",
    "amenity": "hospital",
    "longitude": 81.6285101,
    "latitude": 28.055423
  },
  {
    "name": "लाइफलाइन जनरल हस्पिटल",
    "amenity": "hospital",
    "longitude": 81.6218756,
    "latitude": 28.0551875
  },
  {
    "name": "बैष्णबी हस्पिटल",
    "amenity": "hospital",
    "longitude": 81.6194418,
    "latitude": 28.0578998
  },
  {
    "name": "लाइफ लाइन जनरल हस्पिटल प्रा.लि",
    "amenity": "hospital",
    "longitude": 81.6221426,
    "latitude": 28.054951
  },
  {
    "name": "Yasoda hospital",
    "amenity": "hospital",
    "longitude": 81.6185949,
    "latitude": 28.0501025
  },
  {
    "name": "Maa Jankaki Hospital",
    "amenity": "hospital",
    "longitude": 81.6177763,
    "latitude": 28.0475985
  },
  {
    "name": "सेन्टल सिटि हस्पिटल",
    "amenity": "hospital",
    "longitude": 81.617687,
    "latitude": 28.0583785
  },
  {
    "name": "नेपालगन्ज शिक्षण अस्पताल",
    "amenity": "hospital",
    "longitude": 81.6177099,
    "latitude": 28.0595286
  },
  {
    "name": "वैष्णवि हस्पिटल प्रा .लि.",
    "amenity": "hospital",
    "longitude": 81.6194113,
    "latitude": 28.0579112
  },
  {
    "name": "सहरी स्वास्थ्य केन्द्र",
    "amenity": "hospital",
    "longitude": 80.0847626,
    "latitude": 28.8524971
  },
  {
    "name": "दोधारा प्राथमिक स्वास्थ्य केन्द्र",
    "amenity": "hospital",
    "longitude": 80.0896683,
    "latitude": 28.8896427
  },
  {
    "name": "Government Hospital,Khajuriya",
    "amenity": "hospital",
    "longitude": 80.3388092,
    "latitude": 28.6450244
  },
  {
    "name": "Thumpokhara Health Post",
    "amenity": "hospital",
    "longitude": 83.7165736,
    "latitude": 27.9973557
  },
  {
    "name": "Sirsekot Helth post",
    "amenity": "hospital",
    "longitude": 83.6850434,
    "latitude": 28.0004717
  },
  {
    "name": "Jhalunge Urban Health Post",
    "amenity": "hospital",
    "longitude": 83.7179769,
    "latitude": 27.97942
  },
  {
    "name": "Sorek Health Post",
    "amenity": "hospital",
    "longitude": 83.7551106,
    "latitude": 28.0098821
  },
  {
    "name": "Waling Hospital",
    "amenity": "hospital",
    "longitude": 83.7522156,
    "latitude": 27.9785989
  },
  {
    "name": "Pekhu Bagkhor Health Post",
    "amenity": "hospital",
    "longitude": 83.7333008,
    "latitude": 27.9993285
  },
  {
    "name": "Kafaldanda Urban Health Post",
    "amenity": "hospital",
    "longitude": 83.7787755,
    "latitude": 27.9529637
  },
  {
    "name": "Garhaun Primary Hospital",
    "amenity": "hospital",
    "longitude": 83.7548198,
    "latitude": 27.9812261
  },
  {
    "name": "Dhanubase Health Post",
    "amenity": "hospital",
    "longitude": 83.8022174,
    "latitude": 27.9934631
  },
  {
    "name": "City Health Center Kagatibhajyang",
    "amenity": "hospital",
    "longitude": 83.7598926,
    "latitude": 27.9949178
  },
  {
    "name": "Tanahun Sewa Hospital",
    "amenity": "hospital",
    "longitude": 84.0710626,
    "latitude": 28.0579973
  },
  {
    "name": "आरोग्य प्राकृतिक क्लिनिक",
    "amenity": "hospital",
    "longitude": 82.2910362,
    "latitude": 28.1179879
  },
  {
    "name": "टरिगाउँ स्वास्थ्य चौकी",
    "amenity": "hospital",
    "longitude": 82.267127,
    "latitude": 28.0987889
  },
  {
    "name": "धर्ना स्वास्थ्य चौकी",
    "amenity": "hospital",
    "longitude": 82.392928,
    "latitude": 27.9935085
  },
  {
    "name": "सहरी स्वस्थेय केन्द्र झिङ्नी",
    "amenity": "hospital",
    "longitude": 82.4887902,
    "latitude": 27.975891
  },
  {
    "name": "जनता सेवा हस्पिटल प्रा.लि",
    "amenity": "hospital",
    "longitude": 81.6395223,
    "latitude": 28.0592196
  },
  {
    "name": "भालुवाङ अस्पताल",
    "amenity": "hospital",
    "longitude": 82.7700219,
    "latitude": 27.8435925
  },
  {
    "name": "वडिदमार सामुदायिक स्वास्थ इकाई",
    "amenity": "hospital",
    "longitude": 82.8155441,
    "latitude": 27.8815708
  },
  {
    "name": "लक्ष्मीपुर स्वास्थ्य चौकी",
    "amenity": "hospital",
    "longitude": 82.5060475,
    "latitude": 28.0013524
  },
  {
    "name": "ढिकपुर स्वास्थ चौकी",
    "amenity": "hospital",
    "longitude": 82.3739574,
    "latitude": 28.0563609
  },
  {
    "name": "डुरुवा स्वास्थ्य चौकी",
    "amenity": "hospital",
    "longitude": 82.3301938,
    "latitude": 28.040344
  },
  {
    "name": "राप्तिसोनारी अस्पताल",
    "amenity": "hospital",
    "longitude": 81.8946838,
    "latitude": 28.0242786
  },
  {
    "name": "Dwangpur Health Post",
    "amenity": "hospital",
    "longitude": 82.3160787,
    "latitude": 28.0213892
  },
  {
    "name": "Phateh-Bal Aakha Aspatal",
    "amenity": "hospital",
    "longitude": 81.6366501,
    "latitude": 28.0589056
  },
  {
    "name": "पञ्चकुले स्वास्थ्य चौकी",
    "amenity": "hospital",
    "longitude": 82.1422742,
    "latitude": 28.1706793
  },
  {
    "name": "राप्ती आयुर्वेदिक अस्पताल",
    "amenity": "hospital",
    "longitude": 82.1405358,
    "latitude": 28.1675098
  },
  {
    "name": "मितेरी हस्पिटल प्रा लि",
    "amenity": "hospital",
    "longitude": 82.4945059,
    "latitude": 28.0360684
  },
  {
    "name": "hospital",
    "amenity": "hospital",
    "longitude": 82.5255653,
    "latitude": 28.1660584
  },
  {
    "name": "राप्ती लाइफ केयर अस्पताल",
    "amenity": "hospital",
    "longitude": 82.2984418,
    "latitude": 28.1314736
  },
  {
    "name": "तुल्सी बाल अस्पताल",
    "amenity": "hospital",
    "longitude": 82.2957569,
    "latitude": 28.134942
  },
  {
    "name": "स्वस्थ्य चौकी , सैघा",
    "amenity": "hospital",
    "longitude": 82.5483942,
    "latitude": 28.1045691
  },
  {
    "name": "Samudayak Swastha Khop Kendra",
    "amenity": "hospital",
    "longitude": 81.6959468,
    "latitude": 28.110509
  },
  {
    "name": "कोहलपुर हेल्थ केयर प्रालि",
    "amenity": "hospital",
    "longitude": 81.6885324,
    "latitude": 28.191079
  },
  {
    "name": "Nepalgunj Medical College, Kohalpur",
    "amenity": "hospital",
    "longitude": 81.6774648,
    "latitude": 28.1989099
  },
  {
    "name": "Kaushila Aspataal",
    "amenity": "hospital",
    "longitude": 81.6845779,
    "latitude": 28.1866455
  },
  {
    "name": "Care City Hospital",
    "amenity": "hospital",
    "longitude": 81.6461294,
    "latitude": 28.0846523
  },
  {
    "name": "TB Nepal, Nepalgunj Tuberculosis Referal Center",
    "amenity": "hospital",
    "longitude": 81.6321363,
    "latitude": 28.0610351
  },
  {
    "name": "Brinos",
    "amenity": "hospital",
    "longitude": 81.6358914,
    "latitude": 28.059682
  },
  {
    "name": "आखा अस्पताल",
    "amenity": "hospital",
    "longitude": 81.6125143,
    "latitude": 28.0394595
  },
  {
    "name": "मिड वेस्टर्न आखा अस्पताल",
    "amenity": "hospital",
    "longitude": 81.6127737,
    "latitude": 28.0394175
  },
  {
    "name": "अमरबन हेल्थपोस्ट",
    "amenity": "hospital",
    "longitude": 83.6149368,
    "latitude": 27.5538826
  },
  {
    "name": "अाधारभूत स्वास्थ्य सेवा केन्द्र",
    "amenity": "hospital",
    "longitude": 83.6379852,
    "latitude": 27.5760994
  },
  {
    "name": "स्वाठी स्वास्थ्य चाैकी",
    "amenity": "hospital",
    "longitude": 83.6518707,
    "latitude": 27.5676537
  },
  {
    "name": "Aadharbhut Swasthya Kendra",
    "amenity": "hospital",
    "longitude": 83.6560822,
    "latitude": 27.5322647
  },
  {
    "name": "Prithivi Chandra Aspataal",
    "amenity": "hospital",
    "longitude": 83.6659656,
    "latitude": 27.5316825
  },
  {
    "name": "Dr Binod Nita Kandel Eye Hospital",
    "amenity": "hospital",
    "longitude": 83.6655443,
    "latitude": 27.5322047
  },
  {
    "name": "Jamuwad health post",
    "amenity": "hospital",
    "longitude": 83.6731262,
    "latitude": 27.5305691
  },
  {
    "name": "Amarout swasthya chauki",
    "amenity": "hospital",
    "longitude": 83.6282559,
    "latitude": 27.5698472
  },
  {
    "name": "अाधारभूत स्वास्थ्य सेवा केन्द्र",
    "amenity": "hospital",
    "longitude": 83.6590347,
    "latitude": 27.5990505
  },
  {
    "name": "शहरी स्वास्थ्य प्रबद्धर्न",
    "amenity": "hospital",
    "longitude": 83.6410599,
    "latitude": 27.610899
  },
  {
    "name": "अाधारभूत स्वास्थ्य सेवा केन्द्र",
    "amenity": "hospital",
    "longitude": 83.6728821,
    "latitude": 27.595047
  },
  {
    "name": "Aadharbhoot swasthya sewa kendra",
    "amenity": "hospital",
    "longitude": 83.675209,
    "latitude": 27.5395508
  },
  {
    "name": "Butwal Lion Eye Hospital",
    "amenity": "hospital",
    "longitude": 83.458448,
    "latitude": 27.7045281
  },
  {
    "name": "Lumbini Province Hospital लुम्बिनी प्रादेशिक अस्पताल",
    "amenity": "hospital",
    "longitude": 83.4641361,
    "latitude": 27.6978144
  },
  {
    "name": "Primary Health Center",
    "amenity": "hospital",
    "longitude": 83.09071,
    "latitude": 27.5053119
  },
  {
    "name": "बिनायक अस्पताल",
    "amenity": "hospital",
    "longitude": 85.3130213,
    "latitude": 27.7350965
  },
  {
    "name": "Cutis Care",
    "amenity": "hospital",
    "longitude": 85.337671,
    "latitude": 27.6952816
  },
  {
    "name": "नर्भिक अन्तर्राष्ट्रिय स्वास्थ्य मूल्यांकन केन्द्र",
    "amenity": "hospital",
    "longitude": 85.3200625,
    "latitude": 27.6893068
  },
  {
    "name": "नेत्रधाम आँखा सेवा केन्द्र",
    "amenity": "hospital",
    "longitude": 85.3164579,
    "latitude": 27.6873782
  },
  {
    "name": "भारोसा अस्पताल",
    "amenity": "hospital",
    "longitude": 85.3370557,
    "latitude": 27.6943238
  },
  {
    "name": "Lumbini City Hospital",
    "amenity": "hospital",
    "longitude": 83.4665785,
    "latitude": 27.6965718
  },
  {
    "name": "कपन अस्पताल",
    "amenity": "hospital",
    "longitude": 85.3602424,
    "latitude": 27.7347534
  },
  {
    "name": "अल नेपाल अस्पताल",
    "amenity": "hospital",
    "longitude": 85.3177058,
    "latitude": 27.7359482
  },
  {
    "name": "मरिई स्टोप्स नेपाल",
    "amenity": "hospital",
    "longitude": 85.3174374,
    "latitude": 27.7348093
  },
  {
    "name": "कान्तिपुर अस्पताल",
    "amenity": "hospital",
    "longitude": 85.3452223,
    "latitude": 27.68588
  },
  {
    "name": "Narayani Samydayik Hospital",
    "amenity": "hospital",
    "longitude": 84.4324497,
    "latitude": 27.6816756
  },
  {
    "name": "Chitwan Hospital",
    "amenity": "hospital",
    "longitude": 84.4303659,
    "latitude": 27.6814753
  },
  {
    "name": "bhim",
    "amenity": "hospital",
    "longitude": 83.4541135,
    "latitude": 27.5058563
  },
  {
    "name": "Bhim Hospital",
    "amenity": "hospital",
    "longitude": 83.4544391,
    "latitude": 27.5061589
  },
  {
    "name": "Bhim Hospital",
    "amenity": "hospital",
    "longitude": 83.4544144,
    "latitude": 27.5059032
  },
  {
    "name": "नेचर केयर अस्पताल",
    "amenity": "hospital",
    "longitude": 85.3341445,
    "latitude": 27.688783
  },
  {
    "name": "संजीवनी हेल्थ केयर सेन्टर",
    "amenity": "hospital",
    "longitude": 85.3520244,
    "latitude": 27.6755499
  },
  {
    "name": "एपेक्स पोलिक्लिनिक एण्ड डाइगोनोस्टिक सेन्टर प्रा. लि",
    "amenity": "hospital",
    "longitude": 85.3527456,
    "latitude": 27.6750042
  },
  {
    "name": "हाम्रो सहयात्री अस्पताल",
    "amenity": "hospital",
    "longitude": 85.3535501,
    "latitude": 27.6760051
  },
  {
    "name": "शिखरबेंसी स्वास्थ्य चौकी",
    "amenity": "hospital",
    "longitude": 85.395068,
    "latitude": 27.961697
  },
  {
    "name": "मध्यपुर अस्पताल",
    "amenity": "hospital",
    "longitude": 85.3879984,
    "latitude": 27.6725806
  },
  {
    "name": "मध्यपुर अस्पताल ठिमी",
    "amenity": "hospital",
    "longitude": 85.3881738,
    "latitude": 27.6722536
  },
  {
    "name": "नेपाल कोरिया मैत्री अस्पताल",
    "amenity": "hospital",
    "longitude": 85.3795337,
    "latitude": 27.6736997
  },
  {
    "name": "Bhaktapur Hospital Emergency Block",
    "amenity": "hospital",
    "longitude": 85.4220862,
    "latitude": 27.6720774
  },
  {
    "name": "क्रिस्टल डेन्टल अस्पताल",
    "amenity": "hospital",
    "longitude": 85.3748745,
    "latitude": 27.6741089
  },
  {
    "name": "Garuda City Hospital Garuda Rautahat",
    "amenity": "hospital",
    "longitude": 85.3186722,
    "latitude": 26.9550438
  },
  {
    "name": "Janseba Emrjensi Hospital",
    "amenity": "hospital",
    "longitude": 85.3210373,
    "latitude": 26.9679432
  },
  {
    "name": "Garuda Hospital Pvt. Ltd. Garuda Rautahat",
    "amenity": "hospital",
    "longitude": 85.3184729,
    "latitude": 26.9535014
  },
  {
    "name": "Anamika Hispital Pvt.Ltd.",
    "amenity": "hospital",
    "longitude": 85.3178441,
    "latitude": 26.9555175
  },
  {
    "name": "Anand Hospital Private Limited",
    "amenity": "hospital",
    "longitude": 85.3054318,
    "latitude": 26.9315148
  },
  {
    "name": "Shree Ratnahari Memorial Hospital",
    "amenity": "hospital",
    "longitude": 84.2689367,
    "latitude": 27.9768326
  },
  {
    "name": "Nepal Aankha Aspatal",
    "amenity": "hospital",
    "longitude": 84.987854,
    "latitude": 27.1623993
  },
  {
    "name": "Sk Cecil Nursing Home",
    "amenity": "hospital",
    "longitude": 85.0094986,
    "latitude": 27.0282822
  },
  {
    "name": "Raj Laxmi Relief Hospital Pvt Ltd",
    "amenity": "hospital",
    "longitude": 85.0018005,
    "latitude": 27.0286064
  },
  {
    "name": "Dr.Kamrul Hak Memorial Hospital Pvt.Ltd",
    "amenity": "hospital",
    "longitude": 85.0023346,
    "latitude": 27.0307541
  },
  {
    "name": "Samir Optical Centre",
    "amenity": "hospital",
    "longitude": 85.0024261,
    "latitude": 27.0312443
  },
  {
    "name": "District Ayurved Health Center.",
    "amenity": "hospital",
    "longitude": 84.9957809,
    "latitude": 27.0438423
  },
  {
    "name": "Yogsheela Hospital Pvt Ltd",
    "amenity": "hospital",
    "longitude": 85.0119705,
    "latitude": 27.0299625
  },
  {
    "name": "Yogsheela Hospital Pvt. Ltd.",
    "amenity": "hospital",
    "longitude": 85.0118656,
    "latitude": 27.0298754
  },
  {
    "name": "B.P. ENT Hospital (Netra Pratisthan)",
    "amenity": "hospital",
    "longitude": 85.1550827,
    "latitude": 26.9404163
  },
  {
    "name": "दिर्गजीवन मेडिकल हल",
    "amenity": "hospital",
    "longitude": 85.3790376,
    "latitude": 27.7067293
  },
  {
    "name": "Bahuarwa Bhata Hospital",
    "amenity": "hospital",
    "longitude": 84.8116946,
    "latitude": 27.0555653
  },
  {
    "name": "आयानस अस्पताल",
    "amenity": "hospital",
    "longitude": 85.3306848,
    "latitude": 27.763547
  },
  {
    "name": "Birgunj Health Care Hospital",
    "amenity": "hospital",
    "longitude": 84.8989563,
    "latitude": 27.0444374
  },
  {
    "name": "Sparsha Multispecialty Hospital",
    "amenity": "hospital",
    "longitude": 84.901741,
    "latitude": 27.0414619
  },
  {
    "name": "तराई हस्पिटल",
    "amenity": "hospital",
    "longitude": 84.8921967,
    "latitude": 27.0280914
  },
  {
    "name": "Asharam Hospital Pvt. Ltd",
    "amenity": "hospital",
    "longitude": 84.8858414,
    "latitude": 27.016058
  },
  {
    "name": "Shiva Aaakha Aaspatal",
    "amenity": "hospital",
    "longitude": 84.8828354,
    "latitude": 27.0137959
  },
  {
    "name": "Tarai Hospital & Research Center, Birgunj तराई अस्पताल र अनुसन्धान केन्द्र",
    "amenity": "hospital",
    "longitude": 84.8923391,
    "latitude": 27.0279931
  },
  {
    "name": "Gandak Hospital Pvt.Ltd",
    "amenity": "hospital",
    "longitude": 84.9011154,
    "latitude": 27.0474033
  },
  {
    "name": "The Duncan Hospital",
    "amenity": "hospital",
    "longitude": 84.8511368,
    "latitude": 26.9890722
  },
  {
    "name": "Neuro And General Hospital Pvt.Ltd",
    "amenity": "hospital",
    "longitude": 84.8858337,
    "latitude": 27.0167065
  },
  {
    "name": "Prabhu Hospital Amd Research Centre",
    "amenity": "hospital",
    "longitude": 84.8839722,
    "latitude": 27.013773
  },
  {
    "name": "Krishna Hospital Pvt Ltd",
    "amenity": "hospital",
    "longitude": 84.8719635,
    "latitude": 27.0045185
  },
  {
    "name": "Narayani Hospital",
    "amenity": "hospital",
    "longitude": 84.8708954,
    "latitude": 27.0048256
  },
  {
    "name": "Birgunj Om Hospital",
    "amenity": "hospital",
    "longitude": 84.8715286,
    "latitude": 27.0064068
  },
  {
    "name": "Health Care Hospital",
    "amenity": "hospital",
    "longitude": 84.8704605,
    "latitude": 27.0139256
  },
  {
    "name": "Nepal Indo Hospital And Center Pvt. Ltd.",
    "amenity": "hospital",
    "longitude": 84.863945,
    "latitude": 26.9958096
  },
  {
    "name": "Narayani Central Hospital",
    "amenity": "hospital",
    "longitude": 84.8724442,
    "latitude": 27.005743
  },
  {
    "name": "Birgunj Metrocity Hospital Pvt. Ltd",
    "amenity": "hospital",
    "longitude": 84.8709946,
    "latitude": 27.0018826
  },
  {
    "name": "Surya Hospital",
    "amenity": "hospital",
    "longitude": 84.8705292,
    "latitude": 27.0028667
  },
  {
    "name": "Narayani Eye Hospital",
    "amenity": "hospital",
    "longitude": 84.8632813,
    "latitude": 26.9959774
  },
  {
    "name": "M.B Media Dental College And Teaching Hospital Pvt. Ltd",
    "amenity": "hospital",
    "longitude": 84.8625336,
    "latitude": 26.9953251
  },
  {
    "name": "Nepal Endo Hospital And Eye Care",
    "amenity": "hospital",
    "longitude": 84.8640594,
    "latitude": 26.9957848
  },
  {
    "name": "निलकण्ठ हस्पिटल",
    "amenity": "hospital",
    "longitude": 84.8867722,
    "latitude": 27.0295029
  },
  {
    "name": "Shah Hospital Pvt Ltd",
    "amenity": "hospital",
    "longitude": 84.8752823,
    "latitude": 27.017437
  },
  {
    "name": "Shree Bhawani Hospital And Research Centre Pvt.Ltd",
    "amenity": "hospital",
    "longitude": 84.8835297,
    "latitude": 27.0130768
  },
  {
    "name": "Sah Hospital",
    "amenity": "hospital",
    "longitude": 84.8764801,
    "latitude": 27.0117207
  },
  {
    "name": "Sita Hospital Pvt.Ltd",
    "amenity": "hospital",
    "longitude": 84.8744125,
    "latitude": 27.0074844
  },
  {
    "name": "Advance Medicare Hospital Pvt Ltd",
    "amenity": "hospital",
    "longitude": 84.8738022,
    "latitude": 27.0073929
  },
  {
    "name": "चिरायु राष्ट्रिय अस्पताल तथा चिकित्सा संस्थान",
    "amenity": "hospital",
    "longitude": 85.3301616,
    "latitude": 27.6922104
  },
  {
    "name": "इन्फेरलिटी सेन्टर",
    "amenity": "hospital",
    "longitude": 85.32902,
    "latitude": 27.6903846
  },
  {
    "name": "Rasuwa District Hospital",
    "amenity": "hospital",
    "longitude": 85.2964836,
    "latitude": 28.1104436
  },
  {
    "name": "बालकुमारी स्वास्थ्य चौकी",
    "amenity": "hospital",
    "longitude": 85.39177,
    "latitude": 27.911287
  },
  {
    "name": "स्वास्थ्य चौकी",
    "amenity": "hospital",
    "longitude": 85.440244,
    "latitude": 27.976493
  },
  {
    "name": "Gaur Central Hospital Pvt. Ltd.",
    "amenity": "hospital",
    "longitude": 85.2780838,
    "latitude": 26.7608776
  },
  {
    "name": "Nepal Jyoti Sangh Eye Hospital",
    "amenity": "hospital",
    "longitude": 85.28125,
    "latitude": 26.7764683
  },
  {
    "name": "Gaur Private Hospital",
    "amenity": "hospital",
    "longitude": 85.2750156,
    "latitude": 26.7649651
  },
  {
    "name": "सिटी अस्पताल",
    "amenity": "hospital",
    "longitude": 85.3246923,
    "latitude": 27.6909765
  },
  {
    "name": "Primary Health Center, Gajuri",
    "amenity": "hospital",
    "longitude": 84.8799835,
    "latitude": 27.8064806
  },
  {
    "name": "Family Hospital",
    "amenity": "hospital",
    "longitude": 85.3196166,
    "latitude": 27.617975
  },
  {
    "name": "Umesh Pharmacy",
    "amenity": "hospital",
    "longitude": 84.9222206,
    "latitude": 27.9728951
  },
  {
    "name": "Bibek Medical",
    "amenity": "hospital",
    "longitude": 84.9225823,
    "latitude": 27.9724242
  },
  {
    "name": "Pokhariya Hospital",
    "amenity": "hospital",
    "longitude": 84.7622868,
    "latitude": 27.078883
  },
  {
    "name": "Kiran Eye Hospital",
    "amenity": "hospital",
    "longitude": 84.7653059,
    "latitude": 27.0756135
  },
  {
    "name": "Mahadev Basi Helth post",
    "amenity": "hospital",
    "longitude": 85.0669243,
    "latitude": 27.7498415
  },
  {
    "name": "Alive Hospital",
    "amenity": "hospital",
    "longitude": 84.4287179,
    "latitude": 27.6859846
  },
  {
    "name": "Sagarmatha Terai Hospital, Jethariya",
    "amenity": "hospital",
    "longitude": 85.2954361,
    "latitude": 26.8715835
  },
  {
    "name": "सुब्बा मेडिकल सेन्टर प्रा. लि",
    "amenity": "hospital",
    "longitude": 85.3230411,
    "latitude": 27.7378197
  },
  {
    "name": "Panauti Hospital",
    "amenity": "hospital",
    "longitude": 85.5169801,
    "latitude": 27.5923956
  },
  {
    "name": "डोहोटे सहरी सामुदायिक स्वास्थ्य केन्द्र शिनपा -१२ डोहोटे",
    "amenity": "hospital",
    "longitude": 83.0727346,
    "latitude": 27.7734066
  },
  {
    "name": "पावरा आधारभुत स्वास्थ केन्द्र शितगङ्गा नगरपालिका-१४ पावरा अर्घाखाँची",
    "amenity": "hospital",
    "longitude": 83.2000046,
    "latitude": 27.7743225
  },
  {
    "name": "प्रस्तावित इशान महिला तथा बालबालिका अस्पताल",
    "amenity": "hospital",
    "longitude": 85.3335285,
    "latitude": 27.7445649
  },
  {
    "name": "मन्द्रे सहरी स्वास्थ्य केन्द्र",
    "amenity": "hospital",
    "longitude": 83.1701965,
    "latitude": 27.8595448
  },
  {
    "name": "रामनगर स्वास्थ चौकी",
    "amenity": "hospital",
    "longitude": 83.7020645,
    "latitude": 27.5756378
  },
  {
    "name": "शहरी स्वास्थय केंद्र",
    "amenity": "hospital",
    "longitude": 83.6937637,
    "latitude": 27.5424595
  },
  {
    "name": "pachnagar health post",
    "amenity": "hospital",
    "longitude": 83.7515793,
    "latitude": 27.5603333
  },
  {
    "name": "Chisapani Hospital",
    "amenity": "hospital",
    "longitude": 83.772754,
    "latitude": 27.5584998
  },
  {
    "name": "Adharbhut health post",
    "amenity": "hospital",
    "longitude": 83.7600632,
    "latitude": 27.5689602
  },
  {
    "name": "manari health post",
    "amenity": "hospital",
    "longitude": 83.7082901,
    "latitude": 27.5298252
  },
  {
    "name": "सुनवल स्वास्थ्य चाैकी",
    "amenity": "hospital",
    "longitude": 83.5857239,
    "latitude": 27.5981922
  },
  {
    "name": "आधारभुत स्वास्थ केन्द्र",
    "amenity": "hospital",
    "longitude": 82.7877426,
    "latitude": 27.8441219
  },
  {
    "name": "ढुङ्गेसेरा आधारभुत स्वास्थ्य केन्द्र",
    "amenity": "hospital",
    "longitude": 83.0189972,
    "latitude": 27.7938004
  },
  {
    "name": "बाँके ढेाडेनि शहरि स्वास्थ्य इकाई",
    "amenity": "hospital",
    "longitude": 82.9565201,
    "latitude": 27.8059597
  },
  {
    "name": "जिल्ला स्वास्थ कार्यालय जलुके",
    "amenity": "hospital",
    "longitude": 82.9585876,
    "latitude": 27.9136906
  },
  {
    "name": "सा",
    "amenity": "hospital",
    "longitude": 82.8466351,
    "latitude": 27.8225804
  },
  {
    "name": "चाबेनेटा सामुदायिक सहरी स्वास्थ्य केन्द्र शिनपा -११",
    "amenity": "hospital",
    "longitude": 82.867569,
    "latitude": 27.7930851
  },
  {
    "name": "Aarogya Hospital",
    "amenity": "hospital",
    "longitude": 83.4558022,
    "latitude": 27.5271601
  },
  {
    "name": "लमही सर्पदंश उपचार केन्द्र",
    "amenity": "hospital",
    "longitude": 82.5276859,
    "latitude": 27.8701503
  },
  {
    "name": "लमही अस्पताल",
    "amenity": "hospital",
    "longitude": 82.5274703,
    "latitude": 27.8703696
  },
  {
    "name": "Snake Bite Clinic",
    "amenity": "hospital",
    "longitude": 83.0443859,
    "latitude": 27.662508
  },
  {
    "name": "Gorusinghe Swastha Chowki",
    "amenity": "hospital",
    "longitude": 83.0437463,
    "latitude": 27.6594394
  },
  {
    "name": "आधारभूत स्वास्थ्य सेवा केन्द्र",
    "amenity": "hospital",
    "longitude": 83.6603775,
    "latitude": 27.5031929
  },
  {
    "name": "devgawn swast chauki",
    "amenity": "hospital",
    "longitude": 83.7043991,
    "latitude": 27.5035839
  },
  {
    "name": "श्री रण अम्बिका आँखा अस्पताल",
    "amenity": "hospital",
    "longitude": 83.4578478,
    "latitude": 27.4969072
  },
  {
    "name": "lumbini eyes hospital pra.li",
    "amenity": "hospital",
    "longitude": 83.4584653,
    "latitude": 27.4975467
  },
  {
    "name": "ojus hospital",
    "amenity": "hospital",
    "longitude": 83.4595739,
    "latitude": 27.5114613
  },
  {
    "name": "मायादेवि अस्थायी कोभिड अस्पताल",
    "amenity": "hospital",
    "longitude": 83.4018784,
    "latitude": 27.5131607
  },
  {
    "name": "Daaunae devi health post",
    "amenity": "hospital",
    "longitude": 83.8028107,
    "latitude": 27.4974194
  },
  {
    "name": "Paklihawa health post",
    "amenity": "hospital",
    "longitude": 83.8476728,
    "latitude": 27.3860225
  },
  {
    "name": "aadharbhut health post piparpati",
    "amenity": "hospital",
    "longitude": 83.8171463,
    "latitude": 27.4315777
  },
  {
    "name": "Baidauli health post",
    "amenity": "hospital",
    "longitude": 83.7713547,
    "latitude": 27.4026184
  },
  {
    "name": "guthisuryapura health post",
    "amenity": "hospital",
    "longitude": 83.789444,
    "latitude": 27.4235725
  },
  {
    "name": "Mahendra Memorial Eye Hospital",
    "amenity": "hospital",
    "longitude": 84.4391608,
    "latitude": 27.6847699
  },
  {
    "name": "निको चिल्ड्रेन्स हस्पिटल (प्रा.) लि",
    "amenity": "hospital",
    "longitude": 84.4294439,
    "latitude": 27.685502
  },
  {
    "name": "Mankamana Hospital",
    "amenity": "hospital",
    "longitude": 84.4325728,
    "latitude": 27.6810851
  },
  {
    "name": "abaya upchar kendra",
    "amenity": "hospital",
    "longitude": 84.4224991,
    "latitude": 27.6986884
  },
  {
    "name": "Mahila Hospital",
    "amenity": "hospital",
    "longitude": 83.4204099,
    "latitude": 27.4299928
  },
  {
    "name": "Seauti adhar bhuit sosthaya kendra",
    "amenity": "hospital",
    "longitude": 83.1708221,
    "latitude": 27.6485348
  },
  {
    "name": "Kopawa health post",
    "amenity": "hospital",
    "longitude": 83.1230087,
    "latitude": 27.6476803
  },
  {
    "name": "Hathausha sosata chauki",
    "amenity": "hospital",
    "longitude": 83.1510162,
    "latitude": 27.6145611
  },
  {
    "name": "Government Hospital Babupaisiya",
    "amenity": "hospital",
    "longitude": 83.3844656,
    "latitude": 27.3655301
  },
  {
    "name": "लेट मी इन",
    "amenity": "hospital",
    "longitude": 85.3338482,
    "latitude": 27.7372671
  },
  {
    "name": "JanaSewa Medical Hall",
    "amenity": "hospital",
    "longitude": 83.4966241,
    "latitude": 27.6281137
  },
  {
    "name": "Crimson",
    "amenity": "hospital",
    "longitude": 83.470594,
    "latitude": 27.6336785
  },
  {
    "name": "खयरभट्टि शहरी स्वास्थ केन्द्र",
    "amenity": "hospital",
    "longitude": 82.9297957,
    "latitude": 27.7464211
  }
]